{"type":"FeatureCollection","features":[{"type":"Feature","properties":{"id":"english-canada","name":"English Canada","kind":"country","color":"#ca352f","summary":"Lord / claim: Unclaimed.","wiki":"","canon":true,"claim":"Unclaimed","source":"east-coast-canon.png","boundaryStatus":"Approximate trace of supplied reference"},"geometry":{"type":"MultiPolygon","coordinates":[[[[-83.27849281550704,35.19165367746725],[-83.28029988503295,35.179415218099436],[-83.14596691183684,34.94836244768336],[-83.1680469328361,34.92891095942533],[-83.19120117443379,34.949029041117186],[-83.32441654896407,35.17908035009176],[-83.33696108050172,35.17977221770663],[-83.34672798905858,35.19817413317902],[-83.60950203122992,35.19480364849136],[-83.61027623033999,35.23339586563869],[-83.30323483608815,35.23707511167605],[-83.27849281550704,35.19165367746725]]],[[[-76.88112715318778,43.942433907396],[-76.87867083947349,43.944000157674004],[-76.879102,43.94292],[-76.88112715318778,43.942433907396]]],[[[-76.96858970838183,43.96016828480936],[-77.04125961486447,43.943278822049926],[-77.013086,43.956543],[-76.96858970838183,43.96016828480936]]],[[[-76.275146,44.008594],[-76.259814,44.022412],[-76.230566,44.028516],[-76.231299,44.017773],[-76.262012,43.990137],[-76.27666,43.987061],[-76.275146,44.008594]]],[[[-77.102734,44.046338],[-77.040234,44.048633],[-76.969336,44.066309],[-76.889941,44.099316],[-76.862988,44.099902],[-76.888428,44.068018],[-76.930176,44.038379],[-77.024023,43.987207],[-77.043799,43.951904],[-77.04237361538411,43.94301991335992],[-77.16896663630165,43.913597994220645],[-77.19196093713029,43.92994432747831],[-77.185156,43.9375],[-77.190039,43.947607],[-77.20820350657006,43.94149094744304],[-77.29722039369494,44.004771832273896],[-77.23090023443608,44.11916284705737],[-77.24349975094916,44.1448129088592],[-77.115283,44.172949],[-77.083203,44.148096],[-77.116992,44.079492],[-77.102734,44.046338]]],[[[-76.760693,44.172168],[-76.642627,44.199268],[-76.639551,44.181396],[-76.687549,44.1375],[-76.731055,44.126709],[-76.786719,44.13042],[-76.809473,44.139893],[-76.799365,44.155127],[-76.760693,44.172168]]],[[[-76.32876,44.239209],[-76.27915,44.246631],[-76.227051,44.254102],[-76.236963,44.232617],[-76.32959,44.207812],[-76.352734,44.175537],[-76.364893,44.156348],[-76.422705,44.121533],[-76.469336,44.124512],[-76.484521,44.127783],[-76.474316,44.141455],[-76.476709,44.152832],[-76.491797,44.161963],[-76.48335,44.178516],[-76.451465,44.202295],[-76.430469,44.226807],[-76.32876,44.239209]]],[[[-76.075439,44.305762],[-76.080566,44.294727],[-76.11123,44.277295],[-76.142725,44.269238],[-76.150293,44.281055],[-76.145215,44.29209],[-76.119141,44.305859],[-76.075439,44.305762]]],[[[-66.210352,44.392041],[-66.273779,44.292285],[-66.324121,44.257324],[-66.311914,44.291602],[-66.250488,44.379004],[-66.210352,44.392041]]],[[[-73.476074,45.704736],[-73.538867,45.546436],[-73.55166,45.489844],[-73.566504,45.469092],[-73.643555,45.449121],[-73.775342,45.467627],[-73.920215,45.441943],[-73.960547,45.441406],[-73.85293,45.515723],[-73.687451,45.561426],[-73.522461,45.701172],[-73.476074,45.704736]]],[[[-73.724658,45.671826],[-73.572363,45.694482],[-73.695312,45.585498],[-73.815918,45.564893],[-73.857715,45.573584],[-73.724658,45.671826]]],[[[-70.913477,46.919531],[-71.025732,46.872949],[-71.11665,46.864844],[-71.094971,46.899561],[-70.97085,46.961426],[-70.879639,46.996094],[-70.825781,46.995361],[-70.913477,46.919531]]],[[[-69.66590805807348,48.40197638647114],[-69.69892916479407,48.32607825320705],[-69.66220731814268,48.24365405437219],[-69.45262530948648,48.343272955605514],[-69.07197935742803,48.794756375913906],[-69.08319421254203,48.827937694967375],[-68.9897406683396,48.91319206297916],[-68.9949890864334,49.00904965403268],[-68.83271935847804,49.372714777857894],[-68.6923343004054,49.52760258845611],[-68.61502039264742,49.5378918676242],[-68.59704237724249,49.59653252731275],[-68.43228029307899,49.708957149913],[-68.36321578972434,49.82150667366061],[-68.1974188758457,49.84194288800365],[-68.06385673939143,49.986896371469506],[-68.0164533783387,50.08727012183773],[-67.22835376095799,50.02342794381271],[-67.15861136353334,49.90409740119922],[-67.05481567726251,49.84177812063484],[-67.234375,49.601758],[-67.261914,49.451172],[-67.372021,49.348438],[-67.469238,49.334619],[-67.549268,49.332275],[-68.05625,49.256787],[-68.281934,49.197168],[-68.220605,49.149658],[-68.294531,49.114355],[-68.414404,49.099512],[-68.543848,49.056152],[-68.627881,49.007178],[-68.669043,48.939502],[-68.929053,48.828955],[-69.230762,48.573633],[-69.374951,48.386426],[-69.550098,48.250781],[-69.673877,48.19917],[-69.761914,48.191162],[-69.851709,48.207373],[-70.001025,48.270947],[-70.110645,48.277979],[-70.383691,48.366504],[-71.018262,48.455615],[-70.922607,48.422314],[-70.83877,48.367383],[-70.671094,48.353223],[-70.500635,48.354346],[-70.145312,48.243555],[-69.971191,48.205762],[-69.865527,48.172266],[-69.775,48.098096],[-69.839844,47.952588],[-69.905566,47.832227],[-69.994434,47.739893],[-70.300098,47.503027],[-70.448047,47.423438],[-70.705859,47.139795],[-70.972705,47.006689],[-71.115625,46.924951],[-71.267773,46.795947],[-71.624756,46.698389],[-71.757275,46.673584],[-71.87959,46.686816],[-72.028467,46.607422],[-72.204639,46.558887],[-72.256641,46.485059],[-72.680127,46.287305],[-72.842676,46.262402],[-72.981006,46.209717],[-73.021924,46.120264],[-73.14541,46.066309],[-73.179688,46.025],[-73.283545,45.899854],[-73.476611,45.738232],[-73.711865,45.711182],[-73.797852,45.654932],[-73.897412,45.56416],[-74.037842,45.501855],[-74.315088,45.531055],[-74.247656,45.492871],[-73.999609,45.43335],[-73.973828,45.345117],[-74.098096,45.324023],[-74.358301,45.206396],[-74.708887,45.003857],[-74.566309,45.041602],[-74.269043,45.188281],[-74.049805,45.241406],[-73.764648,45.395459],[-73.558105,45.425098],[-73.518799,45.458984],[-73.48418,45.586768],[-73.465283,45.632324],[-73.368848,45.757812],[-73.253027,45.863672],[-73.15957,46.010059],[-72.989941,46.103613],[-72.733447,46.181836],[-72.496191,46.352686],[-72.366162,46.404785],[-72.240137,46.44209],[-72.187207,46.511523],[-72.109277,46.551221],[-71.900928,46.631934],[-71.671289,46.65376],[-71.439209,46.720752],[-71.261182,46.75625],[-71.152002,46.819092],[-70.993262,46.852197],[-70.519482,47.03252],[-70.388086,47.116943],[-70.217773,47.289844],[-70.06958,47.377783],[-70.017139,47.471436],[-69.802246,47.623437],[-69.581055,47.823682],[-69.471045,47.967285],[-69.306348,48.047021],[-68.987061,48.275],[-68.815674,48.366016],[-68.746045,48.376416],[-68.552002,48.457324],[-68.431494,48.541699],[-68.238184,48.626416],[-67.889014,48.730908],[-67.56228067199953,48.855426631415256],[-67.59502849984793,48.798952614039756],[-67.51640966850074,48.68045134775295],[-67.40466195393465,48.65664192811635],[-67.35293646401271,48.60743290904089],[-67.27031358530247,48.4931322295252],[-67.22950897221695,48.36301839337192],[-67.16546554879174,48.25077894046159],[-67.09702923414157,48.2889679156502],[-67.10334930101578,48.37469507920898],[-67.01286799975341,48.50142632966468],[-66.9195266101029,48.504001167405214],[-66.7936527573023,48.425631763761025],[-66.81514759184358,48.531705461495875],[-66.7969099102729,48.59745924303996],[-66.71024334707656,48.54087008106397],[-66.7287009372913,48.38793596418315],[-66.78569309556214,48.36130834466319],[-66.74214717889537,48.146646272975204],[-66.73354605272445,47.88160396188158],[-66.81363756461279,47.605184582174445],[-66.78331206139787,47.538794023897566],[-66.69609419321577,47.637663690979274],[-66.6249844387719,47.645961870513794],[-66.56908616647678,47.58556240031351],[-66.55453805582852,47.35937712154021],[-66.51799569959041,47.22724803573412],[-66.34793847896992,47.077462595466145],[-66.3252757059145,46.99077817522715],[-66.28867894723486,46.953757425224644],[-66.2351837769947,46.73841711094822],[-66.18109296050574,46.685271499522784],[-65.9627873684475,46.749236040433836],[-65.92402937792532,46.71627392228768],[-65.80607049321137,46.75114430121807],[-65.73524398384912,46.728324929643634],[-65.69553730484762,46.631608386175294],[-65.76807901089808,46.522543128746484],[-65.62051943592196,46.37540848107002],[-65.43685446188144,46.474799726467296],[-65.19806277388469,46.37871081448111],[-65.10965200369532,46.48763030961432],[-64.89014400519923,46.549776073622816],[-64.65638957823397,46.408953438149695],[-64.64255786192632,46.41271227943531],[-64.647852,46.355957],[-64.556836,46.311426],[-64.541504,46.240332],[-64.211816,46.220215],[-64.14502,46.192871],[-63.915918,46.16582],[-63.872656,46.146191],[-63.831934,46.107178],[-64.056396,46.021338],[-63.95453509655218,45.98651762643726],[-64.1282627961022,45.90240679677836],[-64.45265588661356,45.6153529004069],[-64.56938709601238,45.583671164860704],[-64.63178062267437,45.4864801943717],[-64.70768225248399,45.46550867952664],[-64.73831004256391,45.4170274834076],[-64.84986928561186,45.38569157138178],[-64.88487935302527,45.40780775121125],[-64.827393,45.475537],[-64.560059,45.625488],[-64.39707,45.755859],[-64.351123,45.783203],[-64.314648,45.835693],[-64.404053,45.826904],[-64.482227,45.806348],[-64.536328,45.866602],[-64.632715,45.946631],[-64.642041,45.91333],[-64.593652,45.813672],[-64.778516,45.638428],[-64.8979,45.625977],[-65.057275,45.544238],[-65.282324,45.473096],[-65.54502,45.337305],[-65.884473,45.2229],[-65.955615,45.222461],[-66.109766,45.316602],[-66.06665,45.359473],[-66.026562,45.417578],[-66.064893,45.40083],[-66.089746,45.375635],[-66.17054631700402,45.34049686990855],[-66.13719752400249,45.41365878292319],[-65.96075360696692,45.53413898384327],[-65.91794272954493,45.63486584261927],[-65.86234003653264,45.65706680855651],[-65.83310068803235,45.56553911383381],[-65.71663263414435,45.50856718133922],[-65.70510872266281,45.63465801652055],[-65.54153667284109,45.81527732635236],[-65.43343876342468,45.87184699679353],[-65.49262805832187,45.91393392176879],[-65.61778736324959,45.871468930041246],[-65.65547129510567,45.89982358138614],[-65.70847706776104,45.83944623753267],[-65.93679492676874,45.753150849664934],[-65.97047911593945,45.78212067695591],[-66.10854164891518,45.59606273757484],[-66.1830836057585,45.56232378489101],[-66.2098276516242,45.65899585811943],[-66.1463862275791,45.840273590612036],[-66.12157226804126,45.86604855033775],[-66.106348,45.871338],[-66.041309,45.903613],[-65.988574,45.942187],[-65.978613,45.969336],[-65.949609,46.006445],[-65.929785,46.034229],[-65.919873,46.064014],[-65.91958,46.092871],[-65.942139,46.098682],[-65.957617,46.091455],[-65.969922,46.081934],[-66.00116073971023,46.06650597184119],[-65.98430628621806,46.10074558760171],[-66.05378568822042,46.16352493525923],[-66.12239936162695,46.2956608653716],[-66.10828402191538,46.010208377129715],[-66.16132586233735,45.8947697416305],[-66.189648,45.880762],[-66.17264497806002,45.870135165158636],[-66.19582154223879,45.81969440135645],[-66.30805454611126,45.7266570109575],[-66.36403326116486,45.610886996385524],[-66.43023833956197,45.58031723023815],[-66.60427471627663,45.172320207314385],[-66.65287976452267,45.24291226801537],[-66.6925244638125,45.22579605380879],[-66.74673512688481,45.07954168092608],[-66.872461,45.067285],[-66.908203,45.097656],[-66.918701,45.145605],[-66.976562,45.157178],[-67.084082,45.143945],[-67.10719989176535,45.15839736788009],[-67.1265781028803,45.21838363805493],[-67.48617201947724,46.10250630969524],[-67.56417583247924,46.386732549399795],[-67.68282997218597,46.52919728335869],[-67.76277333231798,46.69014143167507],[-67.82997845110329,46.695564323994965],[-67.87330638197062,46.8021907537975],[-67.88834692374184,46.95518559915872],[-67.96054232955953,47.191805034430686],[-68.03831090056791,47.35826658027043],[-68.11336930882673,47.41222053814613],[-68.14576604863065,47.476705015972975],[-68.29946058113232,47.53438168588214],[-68.42384681583277,47.43343920280396],[-68.5445465321855,47.44942133421946],[-68.76959144990734,47.78888136456215],[-68.96258614845935,47.908939927713554],[-69.24550753407983,47.66793401031325],[-69.24239408084873,47.583515279293174],[-69.33777117871793,47.48738002909679],[-69.29384348674111,47.397469683276974],[-69.32742583338715,47.084915561594855],[-69.38423453002882,47.02702459402488],[-69.40047436122734,46.916407742000764],[-69.6474869481742,46.80638388959527],[-69.80796972866185,46.6447913958952],[-69.82797233443065,46.53263107045575],[-69.92754612539748,46.43344904865142],[-70.1585237152012,46.386542909869064],[-70.28772223062126,46.30392364709353],[-70.33352768443099,46.21408118892421],[-70.71814868150868,45.88416593407602],[-71.75657059587108,45.5793842151186],[-71.75692073383416,45.577659627476706],[-71.8232857636081,45.55807756409926],[-71.87943220585827,45.58672996884459],[-72.28073625290784,45.45454988100833],[-73.06295126165642,44.98384442958943],[-73.11431021916243,45.00772962162952],[-73.11084,45.009326],[-73.087842,45.046143],[-73.104004,45.077979],[-73.146826,45.072998],[-73.204004,45.02168],[-73.23144541885621,44.97940988226598],[-73.30868863436807,44.959283834777864],[-73.323926,45.02876],[-73.346777,45.018018],[-73.38093376970396,44.940460058282795],[-74.88729192835412,44.54797204966988],[-75.17502169375717,44.41926932457976],[-75.88903018056534,44.04887979427371],[-76.07260277724177,43.9987783477667],[-76.101904,44.003174],[-76.175439,43.993799],[-76.192285,44.003369],[-76.15415,44.04541],[-76.16123,44.069336],[-76.173291,44.079443],[-76.197607,44.083496],[-76.280615,44.046484],[-76.306055,44.043213],[-76.309668,44.062744],[-76.352441,44.106055],[-76.237793,44.183203],[-75.832178,44.397266],[-75.790918,44.429883],[-75.775684,44.458887],[-75.786572,44.484326],[-75.805127,44.494678],[-75.831396,44.48999],[-75.941602,44.410791],[-76.057227,44.366602],[-76.340723,44.294727],[-76.407812,44.262451],[-76.490479,44.243701],[-76.588867,44.238477],[-76.687695,44.217969],[-76.787012,44.182227],[-76.991504,44.074121],[-77.041309,44.071094],[-77.062256,44.091162],[-77.055273,44.106396],[-77.020947,44.133105],[-76.896045,44.187549],[-76.913086,44.197754],[-76.951074,44.18623],[-77.01001,44.152881],[-77.033105,44.156445],[-77.020459,44.196924],[-77.058691,44.205078],[-77.147754,44.180811],[-77.20332,44.175391],[-77.225342,44.18877],[-77.250781,44.188818],[-77.26248036628733,44.183453594472454],[-77.27436736564461,44.207653115766455],[-77.14604654775582,44.34179523984428],[-77.13719379553707,44.40818491547518],[-76.87187171631871,44.54604409609738],[-76.7779483660007,44.55535461979612],[-76.62668601173043,44.62443227469078],[-76.57909662368233,44.69964883882142],[-76.42293728659969,44.827306802902775],[-76.44792998961069,44.93071748593173],[-76.40760614599537,45.0093113680498],[-76.21196828943471,45.20695851682756],[-75.83576605593453,45.35739421699666],[-75.57247492588807,45.5900565675592],[-75.53941513881244,45.674119036250836],[-75.4537424926202,45.753969657217716],[-75.04905667375522,45.875196596250994],[-74.99222553731242,45.93123904060835],[-74.96875892883757,45.901581661613534],[-74.77424791309438,46.04286401543421],[-74.70464787029633,45.95591749806496],[-74.55981184873772,46.101416791650045],[-74.41140053262322,46.30662821946536],[-74.37965869664382,46.394048957004046],[-74.29445306596729,46.48332011285174],[-74.21125445084262,46.51553298147567],[-74.01287232890112,46.66961329876391],[-73.68454001890076,46.99269695462227],[-73.39518199152009,47.18918509676],[-73.168377951507,47.43602887577958],[-72.71845094097758,47.77727509973717],[-72.08240682130585,48.45903628046618],[-72.054639,48.453662],[-71.924414,48.44375],[-71.82251,48.475146],[-71.780566,48.518213],[-71.77373,48.560596],[-71.775635,48.609912],[-71.83242838981815,48.65004379078432],[-71.81284193073643,48.66393093709397],[-71.71931780109443,48.77189653788272],[-71.63048112015908,48.80583689102041],[-71.28030422476068,49.07522856807805],[-71.1160046836865,49.235694888061325],[-70.95420290262354,49.51032666682729],[-70.99841623781961,49.530769610709946],[-70.98062052490647,49.55327380429376],[-70.89828745445328,49.53454140116451],[-70.920801,49.497168],[-70.963086,49.405957],[-70.940479,49.408154],[-70.892285,49.456641],[-70.85499036999362,49.524690457479856],[-70.85226092217256,49.52406945407718],[-70.81473394379677,49.54314484294],[-70.788525,49.535937],[-70.756494,49.4875],[-70.736133,49.441699],[-70.700781,49.427393],[-70.676807,49.448486],[-70.638721,49.466162],[-70.571338,49.472705],[-70.538721,49.438818],[-70.515527,49.41084],[-70.508057,49.42666],[-70.50459,49.461035],[-70.486621,49.499268],[-70.46748,49.531543],[-70.449609,49.53667],[-70.431055,49.532031],[-70.405566,49.519092],[-70.353906,49.503857],[-70.329199,49.523096],[-70.335352,49.539648],[-70.350928,49.590332],[-70.324219,49.623779],[-70.282959,49.641016],[-70.241797,49.634912],[-70.195117,49.617432],[-70.157178,49.591699],[-70.137354,49.565234],[-70.139746,49.529541],[-70.1375,49.490771],[-70.080469,49.439893],[-70.069434,49.458789],[-70.063672,49.474805],[-70.029346,49.497754],[-69.982422,49.516895],[-69.946338,49.517627],[-69.917383,49.504102],[-69.902246,49.480908],[-69.903809,49.450684],[-69.888623,49.406689],[-69.866016,49.365625],[-69.855811,49.34248],[-69.824902,49.333154],[-69.783105,49.338623],[-69.786768,49.370361],[-69.844287,49.472217],[-69.898535,49.545117],[-69.950684,49.554883],[-70.016797,49.596729],[-70.072949,49.642725],[-70.099756,49.689795],[-70.135352,49.708252],[-70.171289,49.683984],[-70.205615,49.681934],[-70.235742,49.698535],[-70.259131,49.749707],[-70.289014,49.813232],[-70.317187,49.863574],[-70.339307,49.883594],[-70.376904,49.886963],[-70.35835,49.831934],[-70.307422,49.748145],[-70.30459,49.700537],[-70.340234,49.670215],[-70.410937,49.681738],[-70.442236,49.683545],[-70.471094,49.67207],[-70.514307,49.629834],[-70.585254,49.572266],[-70.667383,49.531152],[-70.715625,49.524805],[-70.744385,49.559863],[-70.75936658560789,49.57128869926608],[-70.70029581094407,49.60131504420269],[-70.61933800638052,49.70674906822436],[-70.63846114632841,49.80178026050463],[-70.59952731108903,49.89476612964845],[-70.53378475335413,49.94389870312914],[-70.49049621729266,49.92109212412129],[-70.12765788200856,50.189277500719925],[-70.11329689256064,50.25620449821126],[-68.73987874699962,50.24574661691155],[-68.68036029336145,50.15191062522015],[-68.69492346913667,50.10587661994246],[-68.82488220818851,50.13138742668221],[-68.85582274068297,49.976630402451754],[-68.91344407835042,49.95480665074408],[-68.97918759175467,49.791341845675824],[-68.98139273688504,49.5406283091309],[-69.14660917441033,49.340370726745626],[-69.12230885501543,49.27545875937646],[-69.15909029086961,49.21538147660323],[-69.12335177564896,49.1179210484924],[-69.15173133894902,49.024913220633174],[-69.33896707647193,48.81986162857746],[-69.37577643561623,48.81875826046788],[-69.53127512032857,48.59180695808316],[-69.51525281920314,48.52581331787227],[-69.66590805807348,48.40197638647114]]],[[[-67.14231513145509,48.62990163159415],[-67.43248264865548,48.862761961370765],[-67.49048767788383,48.873136701487645],[-67.11748,48.96416],[-66.87598871584795,49.03957929810786],[-67.0275625723676,48.83953506702191],[-67.08981528084337,48.67084277150696],[-67.13407709197936,48.67160970699887],[-67.14231513145509,48.62990163159415]]],[[[-67.50954203089144,48.868486957890916],[-67.51399532304158,48.837951097906156],[-67.53122913302553,48.86319475698337],[-67.50954203089144,48.868486957890916]]],[[[-66.099561,44.36748],[-65.868018,44.568799],[-65.941943,44.575537],[-66.146387,44.435937],[-66.125293,44.469727],[-66.090625,44.504932],[-66.02168,44.561719],[-65.917041,44.615088],[-65.777686,44.646191],[-65.72315056738434,44.64888619399375],[-65.86972970315107,44.475483300959894],[-65.86972521657475,44.33750018637571],[-65.96657120325723,44.240131729180426],[-65.97027378092658,44.1378599230366],[-66.00714216639969,44.06182034816581],[-66.11194205330777,43.934842293642504],[-66.14893913112348,43.90618826729746],[-66.192529,44.079687],[-66.193066,44.143848],[-66.099561,44.36748]]],[[[-65.69214373864304,44.73816412066706],[-65.65919691979882,44.72454326110216],[-65.67175492032322,44.709687165722265],[-65.728223,44.697119],[-65.69214373864304,44.73816412066706]]],[[[-66.23726360798021,45.19412981432282],[-66.17609247444706,45.3283294883666],[-66.107324,45.256934],[-66.14375,45.227588],[-66.23726360798021,45.19412981432282]]],[[[-63.811279,46.468701],[-63.784229,46.454639],[-63.737012,46.480518],[-63.681445,46.561914],[-63.534375,46.540625],[-63.51564336371923,46.53179348842987],[-63.626240528726115,46.41416023637836],[-63.31263810738609,46.47565705403522],[-63.286084,46.460205],[-63.2191559468823,46.443978826613005],[-63.198635572350554,46.39932750363123],[-63.255873434418405,46.32481361127682],[-63.5328437810862,46.296363408905314],[-63.573636324141276,46.21062506884028],[-63.641016,46.230469],[-63.731787,46.289062],[-63.800537,46.367334],[-63.763232,46.370361],[-63.750537,46.384375],[-63.758643,46.397607],[-63.860547,46.408154],[-64.019727,46.404834],[-64.11084,46.425439],[-64.106543,46.562109],[-64.136035,46.599707],[-64.235645,46.631445],[-64.36760823656302,46.63960567471632],[-64.26545026027455,46.75812147867625],[-64.14775545538994,46.727330240561756],[-64.05484739294086,46.60886798531132],[-63.969430228778215,46.63074417723901],[-63.942862488460264,46.66848769027399],[-63.903027,46.639111],[-63.879297,46.608984],[-63.863721,46.572363],[-63.875635,46.538672],[-63.905566,46.508789],[-63.833594,46.493896],[-63.811279,46.468701]]],[[[-64.905762,46.887939],[-64.88252,46.822852],[-64.82259514445585,46.70980495858589],[-64.91698043688744,46.666473417856224],[-65.10564376547612,46.71812940275621],[-65.14355939730291,46.875401715215396],[-65.21218657949991,46.91979122114819],[-65.2832004588102,46.90025510889851],[-65.35816389627912,46.752028312413955],[-65.50227899209892,46.75324574924427],[-65.65142572978354,46.79622801847012],[-65.82728526182899,46.96471078978014],[-65.94664264731685,46.93172983149605],[-66.00620218831038,46.982300588772326],[-66.02814935750875,47.06585773147189],[-66.12722485023997,47.15284612313234],[-66.20972841996849,47.132727654350816],[-66.26412947730215,47.2788095096054],[-66.26103876956432,47.3699453841337],[-66.17759104516902,47.54484544827281],[-66.09828993698254,47.53970425889328],[-66.06778881315167,47.324041269661095],[-65.89460245498378,47.27756624430243],[-65.84978185207522,47.11272276767794],[-65.86937344857738,47.06343096560219],[-65.80727966835043,47.01415058638077],[-65.68133458767603,47.17893396114681],[-65.61560817864273,47.19615217027359],[-65.48270821766995,47.101917662673905],[-65.17480085580934,47.18328904807924],[-65.318896,47.101221],[-65.260205,47.069238],[-65.19209,47.049561],[-65.042383,47.088818],[-64.942432,47.086182],[-64.831396,47.060791],[-64.865869,46.957812],[-64.905762,46.887939]]],[[[-65.07293283253148,47.24402446902308],[-64.99496726104712,47.31419235431522],[-64.97091963359846,47.32312596073624],[-65.07293283253148,47.24402446902308]]],[[[-64.6728292992366,48.333229974679035],[-64.64930951160959,48.45950889714462],[-64.43170680620199,48.6509442863511],[-64.34052362215007,48.56834659778862],[-64.42378673986533,48.40666430337761],[-64.633154,48.360498],[-64.6728292992366,48.333229974679035]]],[[[-64.2485713587511,48.6456370179791],[-64.27287713628417,48.705777567569854],[-64.2711954579474,48.70787641154765],[-64.246094,48.691113],[-64.2485713587511,48.6456370179791]]],[[[-61.73097313445501,49.19582211863426],[-61.82323881697508,49.17603521587402],[-61.91309163916001,49.215752538612634],[-61.928830190681744,49.33607165245825],[-61.817139,49.283545],[-61.73584,49.20376],[-61.73097313445501,49.19582211863426]]],[[[-55.674463,49.966553],[-55.530029,49.997168],[-55.50293,49.983154],[-55.527002,49.936768],[-55.583691,49.892383],[-55.717627,49.829004],[-55.730816864347766,49.82391742255122],[-55.7224525376718,49.831253053826195],[-55.68484642422895,49.96585098055566],[-55.674463,49.966553]]],[[[-65.15982696897925,50.296390695773226],[-64.71598239702112,50.37076701336224],[-64.68797607602973,50.292251830267205],[-64.867871,50.275488],[-65.15982696897925,50.296390695773226]]],[[[-55.999902,51.199268],[-55.96084,51.191406],[-55.873535,51.20791],[-55.841113,51.205078],[-55.815088,51.191162],[-55.795508,51.166162],[-55.785352,51.131445],[-55.784717,51.087061],[-55.8,51.033301],[-55.871387,50.907373],[-55.962012,50.837695],[-56.078125,50.780957],[-56.106543,50.759277],[-56.121191,50.733789],[-56.135645,50.650977],[-56.195752,50.584766],[-56.382422,50.416992],[-56.454346,50.380029],[-56.454785,50.350488],[-56.483936,50.27085],[-56.539355,50.206738],[-56.693994,50.059668],[-56.732324,50.007715],[-56.749561,49.966553],[-56.747168,49.908496],[-56.754102,49.88291],[-56.789502,49.83374],[-56.838867,49.787744],[-56.848633,49.765332],[-56.829199,49.724609],[-56.81044257603825,49.711263480316845],[-56.848104904985036,49.61196911380456],[-57.101648718986176,49.42670976141492],[-57.729560822079065,49.29959148422716],[-57.87495065737578,49.32784238925144],[-57.87957015910276,49.44269167308995],[-57.822211221507224,49.48227613807803],[-57.791309,49.48999],[-57.79561961024985,49.5006275014212],[-57.6818236844762,49.57916017703204],[-57.336844239766656,49.648746498690485],[-57.223046890078315,49.7099022955459],[-57.08440350631782,49.94777359987807],[-56.94262032543459,50.07097071172223],[-56.71348295823418,50.15387963332498],[-56.514368857453796,50.28730204681872],[-56.544454187427014,50.37595095926389],[-56.659363902092906,50.35370436063203],[-56.77301372287371,50.25597230714899],[-56.94598470278677,50.22214056737105],[-57.18068984644314,50.28960413032899],[-57.23099869454012,50.0139636469679],[-57.52039621783049,49.95629090711195],[-57.60943969908308,49.99564972583528],[-57.61225567713119,50.07122925815698],[-57.555480023645664,50.12057569287503],[-57.58673453859568,50.171305639067754],[-57.62962750360539,50.16273903097929],[-57.607959,50.198779],[-57.465527,50.463672],[-57.432617,50.505811],[-57.360449,50.583936],[-57.330566,50.605176],[-57.237402,50.605371],[-57.17959,50.614844],[-57.26416,50.649365],[-57.294434,50.673389],[-57.297998,50.69873],[-57.274902,50.725293],[-57.242139,50.744922],[-57.131641,50.787402],[-57.053271,50.857324],[-57.005664,50.939648],[-57.012744,50.967725],[-57.037305,50.995654],[-57.035937,51.01084],[-56.976367,51.027979],[-56.825146,51.125732],[-56.805469,51.144482],[-56.750195,51.274902],[-56.682422,51.332764],[-56.619043,51.362451],[-56.517969,51.399316],[-56.207373,51.488623],[-56.025586,51.568359],[-55.9021,51.563916],[-55.86582,51.508301],[-55.69043,51.471338],[-55.65957,51.511035],[-55.700635,51.559424],[-55.666406,51.578906],[-55.521631,51.596387],[-55.496436,51.589844],[-55.46333017296606,51.56874615049435],[-55.46281361946005,51.560907143727086],[-55.45405173969322,51.558432140335235],[-55.45874,51.536523],[-55.532422,51.436963],[-55.583398,51.388574],[-55.630762,51.3729],[-55.730713,51.358691],[-55.941162,51.343018],[-56.031104,51.328369],[-56.043945,51.261865],[-56.030664,51.226904],[-55.999902,51.199268]]],[[[-55.569678,50.708691],[-55.600781,50.709033],[-55.629346,50.720801],[-55.633887,50.740186],[-55.604492,50.780713],[-55.527197,50.801221],[-55.469287,50.796387],[-55.472754,50.775928],[-55.503809,50.742139],[-55.536133,50.719678],[-55.569678,50.708691]]],[[[-61.05208522670096,50.93475405144539],[-60.85105248511989,50.99291226544778],[-60.729666845193165,50.9414076627186],[-60.621427704422736,51.07529159555803],[-60.477083032250476,51.12213239223418],[-60.537950463468924,51.14771173747512],[-57.20685324471317,51.80276487300862],[-57.14198286227518,51.742430081919785],[-57.08949354491617,51.8245648641449],[-55.831088625475346,52.04988675074207],[-56.01748,51.929297],[-56.282568,51.79707],[-56.548584,51.681006],[-56.975977,51.457666],[-57.018262,51.446777],[-57.095605,51.442529],[-57.299219,51.478271],[-57.46167,51.469092],[-57.76958,51.425928],[-57.85376,51.399512],[-58.022656,51.32207],[-58.089404,51.310986],[-58.270459,51.295215],[-58.442285,51.305908],[-58.510352,51.295068],[-58.593262,51.257129],[-58.614746,51.237061],[-58.637598,51.17168],[-59.054932,50.879102],[-59.165381,50.779883],[-59.378027,50.675439],[-59.611914,50.49209],[-59.815332,50.418262],[-59.886328,50.316406],[-60.080176,50.25459],[-60.438086,50.238867],[-60.608203,50.221143],[-60.807227,50.249805],[-60.956299,50.20542],[-61.07694307286165,50.19793881380866],[-60.996240633671874,50.261352675034395],[-61.03353633108565,50.34950755172495],[-61.37663014964212,50.28006427203183],[-61.48300373688101,50.18155762433793],[-61.75191128783544,50.12680601983447],[-61.835352,50.196973],[-61.88093874997876,50.216407981209535],[-61.67457678856254,50.37356119639922],[-61.56119552090881,50.39633605580218],[-61.383645993453044,50.355383992079375],[-61.0956307538582,50.73704574250088],[-61.05208522670096,50.93475405144539]]],[[[-55.346484,51.982861],[-55.274072,51.995166],[-55.29209761537396,51.93485610092043],[-55.375262664241646,51.88940360544473],[-55.408887,51.888818],[-55.419629,51.900049],[-55.399805,51.938477],[-55.346484,51.982861]]]]}},{"type":"Feature","properties":{"id":"massachusetts","name":"Massachusetts","kind":"country","color":"#004618","summary":"Lord / claim: Unclaimed.","wiki":"","canon":true,"claim":"Unclaimed","source":"east-coast-canon.png","boundaryStatus":"Approximate trace of supplied reference"},"geometry":{"type":"MultiPolygon","coordinates":[[[[-70.61631069028414,41.45718261825641],[-70.63930789884986,41.353352531454966],[-70.785303,41.327441],[-70.829199,41.358984],[-70.760498,41.373584],[-70.67373,41.448535],[-70.61631069028414,41.45718261825641]]],[[[-70.159863,42.097119],[-70.108936,42.07832],[-70.09671760076151,42.06740814112188],[-70.14269222784317,42.04726735022615],[-70.19092115934791,42.09989803398192],[-70.159863,42.097119]]],[[[-69.948633,41.677148],[-69.986768,41.683984],[-70.059521,41.677344],[-70.404687,41.626904],[-70.481348,41.582471],[-70.657129,41.534229],[-70.668066,41.558301],[-70.655371,41.608105],[-70.666455,41.710107],[-70.701123,41.714844],[-70.75239708488377,41.68361929592914],[-70.79786625638602,41.69447918619316],[-70.99262041962199,41.54671361400801],[-71.02393875414609,41.54361370231824],[-71.01104536238132,41.62282794307456],[-71.03351789454533,41.69107066810401],[-71.0281736073037,41.70360190900702],[-71.05888141755047,41.768092514756034],[-71.07714858578525,41.82356473879452],[-71.04092695555843,41.90768581956098],[-71.12119928921265,42.00554276292841],[-71.55892492528567,42.054061958050056],[-71.58758349789015,42.09221182454952],[-71.6781497505987,42.08382901003131],[-71.72832278825443,42.119072326615765],[-71.7355217460466,42.15963491934864],[-71.77980536396058,42.155235509053405],[-71.77983604501803,42.15525706051354],[-71.77988892776071,42.155227207305266],[-71.82394703203248,42.1508502009392],[-71.88167653615908,42.104604045778025],[-72.1411596008816,42.07839724309097],[-72.19602485501396,42.03295377982699],[-72.54606053056368,42.00068311860845],[-72.58875904489541,41.96611857539099],[-72.61382218013158,41.962171971725596],[-72.68388545502295,41.989764026491606],[-73.06044475488922,41.81272073109731],[-73.22639824603864,41.80730453691706],[-73.32806961221125,41.88107748998203],[-73.54609111515298,41.93521532481075],[-73.54254258449949,42.16491043327739],[-73.47667412870011,42.20491715129278],[-73.44282645220306,42.439540445749586],[-73.17803300970388,42.67113116531314],[-73.17596441572488,42.67153233807528],[-73.11426948970363,42.67574921256938],[-73.07168308693127,42.69175613701122],[-72.81418685284825,42.74169366777632],[-72.58803550430716,42.847411833876905],[-72.36512079885698,42.873414347142806],[-72.14569680391844,42.98546723256617],[-72.09180890232315,42.9925622941074],[-72.09181873204278,42.99251797473218],[-71.77435637528733,43.03435915665095],[-71.72768025042323,42.997227324569764],[-71.32682823656947,43.00250686216372],[-71.26734249754799,43.0530503929622],[-70.90239933069037,43.13446245430716],[-70.72936041156234,43.23954753216948],[-70.57717447796058,43.24928338751914],[-70.642334,43.134424],[-70.691162,43.109326],[-70.733105,43.07002],[-70.777637,42.940576],[-70.829053,42.825342],[-70.800293,42.774023],[-70.781348,42.72124],[-70.735693,42.669287],[-70.696875,42.6646],[-70.654834,42.673975],[-70.623975,42.671777],[-70.60415,42.649707],[-70.612939,42.623242],[-70.661426,42.61665],[-70.751855,42.570361],[-70.831152,42.552588],[-70.870898,42.496631],[-70.930469,42.431982],[-71.046191,42.331104],[-70.996729,42.3],[-70.817969,42.264941],[-70.738281,42.228857],[-70.617676,42.04043],[-70.645215,42.021582],[-70.656152,41.987061],[-70.548926,41.938623],[-70.514697,41.80332],[-70.42666,41.757275],[-70.3560745896729,41.74203899706966],[-70.31139439725871,41.712724664861156],[-70.27870862535711,41.73322671144499],[-70.18543097426488,41.75701455011891],[-70.03200537930644,41.76036438724885],[-69.94388444901362,41.81751310625354],[-69.941602,41.807861],[-69.933838,41.710449],[-69.948633,41.677148]]],[[[-68.67030666755532,44.228759601623565],[-68.68280167466344,44.25297882820163],[-68.676758,44.256201],[-68.655957,44.242334],[-68.64104384794365,44.22126468930728],[-68.67030666755532,44.228759601623565]]],[[[-68.37430369113915,44.40148896965218],[-68.3783012583104,44.37851728703823],[-68.40982267497749,44.35337199208547],[-68.409473,44.364258],[-68.37430369113915,44.40148896965218]]],[[[-67.67362193896098,46.423262096649786],[-67.581501417685,46.350677691554424],[-67.5403965252275,46.244160754991135],[-67.50052843683389,46.01106418535544],[-67.14242392835857,45.12079549281195],[-67.10859746325754,44.80660662500727],[-67.08582675255452,44.754100340098596],[-67.19126,44.675586],[-67.364062,44.696875],[-67.457812,44.656543],[-67.556006,44.644775],[-67.599072,44.576807],[-67.652979,44.562402],[-67.726807,44.566504],[-67.790479,44.585693],[-67.839062,44.57627],[-67.907031,44.453613],[-67.95863699688307,44.46352738866534],[-67.96957097933416,44.49924444393658],[-67.99624175050319,44.41262487014793],[-68.013965,44.400879],[-68.056641,44.384326],[-68.093701,44.438818],[-68.117285,44.490625],[-68.152051,44.502002],[-68.198242,44.515234],[-68.20482865666789,44.515173138238744],[-68.18365210411497,44.751899009099986],[-68.34393269444278,44.576013340823465],[-68.36603566380627,44.44900049143469],[-68.37373,44.445117],[-68.416846,44.469092],[-68.450586,44.507617],[-68.479443,44.445654],[-68.521436,44.380225],[-68.514453,44.303906],[-68.53252,44.258643],[-68.572363,44.27085],[-68.612012,44.310547],[-68.723291,44.342285],[-68.811914,44.339355],[-68.793896,44.381738],[-68.710107,44.442578],[-68.735889,44.454492],[-68.777002,44.446045],[-68.794922,44.454492],[-68.765527,44.509766],[-68.762695,44.570752],[-68.800195,44.549414],[-68.847363,44.485059],[-68.961475,44.433838],[-68.956152,44.348096],[-69.03468913823824,44.219616108413355],[-69.10010865714973,44.25787189724065],[-69.13782333627013,44.18499398979151],[-69.10421863482955,44.1289954614424],[-69.12035852648879,44.05248801398709],[-69.137256,44.037842],[-69.2162936252682,43.99213138168894],[-69.24819747232158,44.09495806987899],[-69.34615465502179,44.18150647250313],[-69.43150986954788,44.1109186716228],[-69.53965825113556,43.95665578846348],[-69.541553,43.962598],[-69.556689,43.982764],[-69.58999,43.886572],[-69.623926,43.880615],[-69.636768,43.948828],[-69.652881,43.993896],[-69.699121,43.955029],[-69.729834,43.852002],[-69.762012,43.860693],[-69.772266,43.899023],[-69.795312,43.910645],[-69.803223,43.866846],[-69.791602,43.805225],[-69.80835,43.772314],[-69.840332,43.789893],[-69.87251,43.819531],[-69.925586,43.797021],[-69.93425561226913,43.79539667083897],[-69.92807422656139,43.82318630395093],[-69.94215668997981,43.840795516366036],[-69.91551992138416,44.12348491203329],[-69.95570158481702,44.17359532351935],[-69.83379519139083,44.80702916929331],[-70.03718909357855,45.12118315119791],[-69.95209317544628,45.29292855614324],[-69.9960391408132,45.344217536548044],[-69.80372279447607,46.37108090720005],[-69.84857921181685,46.4195638611679],[-69.55069032694234,46.76443714975557],[-69.44773654784687,46.77408264333692],[-69.31062743282718,46.864934199395755],[-69.28649598898242,47.03214499120209],[-69.23192896662768,47.08759188582713],[-69.20369361788913,47.35143327160999],[-69.24351007615896,47.448738521229174],[-69.19639380417341,47.49608404972246],[-69.19704377320384,47.584603766931345],[-68.95138392038933,47.830277491540045],[-68.87663504038616,47.81612483037404],[-68.64035137396738,47.44574868283297],[-68.57412839428679,47.417539814344345],[-68.5394577348149,47.355391907953006],[-68.41679558884714,47.33932615018327],[-68.26025543152078,47.424991573417046],[-68.08141281108755,47.34686732986584],[-67.9727345540122,47.11203295315763],[-67.87191395866951,46.630467008225416],[-67.77309239060133,46.5522288103643],[-67.72958171953466,46.56659468838376],[-67.67362193896098,46.423262096649786]],[[-67.532715,45.642529],[-67.600439,45.637305],[-67.707764,45.69209],[-67.787061,45.758984],[-67.862988,45.7396],[-67.778955,45.670117],[-67.625488,45.602246],[-67.512402,45.589355],[-67.449414,45.60708],[-67.460938,45.64165],[-67.480078,45.683057],[-67.532715,45.642529]]]]}},{"type":"Feature","properties":{"id":"new-hampshire","name":"New Hampshire","kind":"country","color":"#248b44","summary":"Lord / claim: Unclaimed.","wiki":"","canon":true,"claim":"Unclaimed","source":"east-coast-canon.png","boundaryStatus":"Approximate trace of supplied reference"},"geometry":{"type":"Polygon","coordinates":[[[-69.9960391408132,45.344217536548044],[-69.95209317544628,45.29292855614324],[-70.03718909357855,45.12118315119791],[-69.83379519139083,44.80702916929331],[-69.95570158481702,44.17359532351935],[-69.91551992138416,44.12348491203329],[-69.96718508695072,43.872091912854025],[-69.92807422656139,43.82318630395093],[-69.93425561226913,43.79539667083897],[-69.974316,43.787891],[-69.974512,43.818066],[-69.965234,43.855078],[-70.062354,43.834619],[-70.178809,43.766357],[-70.269238,43.671924],[-70.237891,43.656201],[-70.202588,43.626123],[-70.359668,43.480225],[-70.520703,43.348828],[-70.57717447796058,43.24928338751914],[-70.72936041156234,43.23954753216948],[-70.90239933069037,43.13446245430716],[-71.26734249754799,43.0530503929622],[-71.32682823656947,43.00250686216372],[-71.72768025042323,42.997227324569764],[-71.77435637528733,43.03435915665095],[-72.09181873204278,42.99251797473218],[-72.05752911698129,43.14711997486973],[-72.11031149698842,43.22597470389115],[-71.868365414601,43.614592075654386],[-71.85965311657739,43.79602434246192],[-71.67252604189349,43.96649737660777],[-71.59793939450013,44.166643134228266],[-71.46804126443884,44.28623304735123],[-71.25231511290696,44.61933025437351],[-71.03613156812467,44.686823153445665],[-70.86705182554294,44.84477740442152],[-70.79085212506354,44.96126293498708],[-70.66096874882878,45.716505148829505],[-70.58929628836552,45.78558105287309],[-70.64051214490462,45.8257578635458],[-70.4150418272809,46.0894382055237],[-70.11038702314565,46.34362502230292],[-69.80372279447607,46.37108090720005],[-69.9960391408132,45.344217536548044]],[[-71.373828,43.722266],[-71.399268,43.724561],[-71.394482,43.71123],[-71.408936,43.694531],[-71.42998,43.678613],[-71.43584,43.655859],[-71.443457,43.627734],[-71.370508,43.59751],[-71.277295,43.532031],[-71.232471,43.539697],[-71.214111,43.568701],[-71.216357,43.586523],[-71.262012,43.609326],[-71.292578,43.634668],[-71.305566,43.666943],[-71.330664,43.699609],[-71.373828,43.722266]]]}},{"type":"Feature","properties":{"id":"connecticut","name":"Connecticut","kind":"country","color":"#39b088","summary":"Lord / claim: Unclaimed.","wiki":"","canon":true,"claim":"Unclaimed","source":"east-coast-canon.png","boundaryStatus":"Approximate trace of supplied reference"},"geometry":{"type":"MultiPolygon","coordinates":[[[[-73.6657119238755,40.84806005483745],[-73.652246,40.838037],[-73.642822,40.88125],[-73.609766,40.906201],[-73.573828,40.919629],[-73.487402,40.919971],[-73.440869,40.926758],[-73.407227,40.941113],[-73.372705,40.943799],[-73.278174,40.924219],[-73.18584,40.929834],[-73.17224934324594,40.93476473933898],[-73.35458164159999,40.83381798645992],[-73.60474681961603,40.833865394069626],[-73.65662290750477,40.75540315775399],[-73.6657119238755,40.84806005483745]]],[[[-72.372559,41.125537],[-72.31502383097207,41.141604390607064],[-72.34234321874938,41.10206152364919],[-72.36975939069274,41.08158024513871],[-72.38848002594467,41.1094650182447],[-72.47024598387996,41.064128674713906],[-72.47279750965141,41.06780815341655],[-72.372559,41.125537]]],[[[-72.05228886513541,41.32836377476128],[-72.073877,41.326123],[-72.265283,41.29165],[-72.371045,41.312158],[-72.479395,41.275781],[-72.847168,41.265869],[-72.924707,41.285156],[-73.02373,41.216455],[-73.182275,41.17583],[-73.583008,41.021875],[-73.671387,40.965869],[-73.67683399615696,40.961442698756485],[-73.68172924552091,41.01134673655464],[-73.55580112030688,41.16678040092004],[-73.60852698037566,41.20600474191115],[-73.59852356538298,41.28367028127761],[-73.71067488998646,41.36200151396425],[-73.68775183957959,41.515865723868465],[-73.47345557540194,41.63059265793887],[-73.38634235643084,41.74622134991629],[-73.28366338587402,41.80543558486936],[-73.00951775504983,41.814382826412306],[-72.69203201194719,41.94985654486439],[-72.11038750097802,42.041446058200144],[-72.05484296260576,42.08711350207188],[-71.91037276769836,42.08156685889562],[-71.95392519431769,41.95684716196222],[-71.94442157150205,41.94364253435549],[-71.99120108174543,41.754148877255595],[-71.96689577417645,41.71664986789183],[-72.03437837142742,41.55233110702552],[-72.03785508177944,41.39442996607549],[-72.05228886513541,41.32836377476128]]]]}},{"type":"Feature","properties":{"id":"rhode-island","name":"Rhode Island","kind":"country","color":"#a0ca82","summary":"Lord / claim: Unclaimed.","wiki":"","canon":true,"claim":"Unclaimed","source":"east-coast-canon.png","boundaryStatus":"Approximate trace of supplied reference"},"geometry":{"type":"MultiPolygon","coordinates":[[[[-72.67425834335867,40.98707357754731],[-72.7069713514707,40.970650149000384],[-72.71053993338423,40.98355140778551],[-72.67425834335867,40.98707357754731]]],[[[-71.383984,41.570557],[-71.364307,41.571826],[-71.354492,41.542285],[-71.365332,41.485254],[-71.393066,41.466748],[-71.403418,41.515039],[-71.383984,41.570557]]],[[[-71.290918,41.4646],[-71.34624,41.469385],[-71.318164,41.506299],[-71.307471,41.560498],[-71.280176,41.62002],[-71.264453,41.638232],[-71.232031,41.654297],[-71.241406,41.491943],[-71.290918,41.4646]]],[[[-71.17832,41.744043],[-71.271094,41.68125],[-71.310742,41.719873],[-71.330615,41.762256],[-71.35918,41.78623],[-71.390137,41.795312],[-71.363672,41.702734],[-71.426562,41.633301],[-71.443799,41.453711],[-71.522852,41.378955],[-71.58124049334573,41.367571097795434],[-71.59566132941674,41.36671749156309],[-71.59959250866281,41.36399303753638],[-71.769287,41.330908],[-71.929932,41.341064],[-72.05228886513541,41.32836377476128],[-72.01156975351104,41.514742948701716],[-72.03437837142742,41.55233110702552],[-71.96689577417645,41.71664986789183],[-71.99120108174543,41.754148877255595],[-71.92699917238268,41.91943531392494],[-71.95392519431769,41.95684716196222],[-71.91037276769836,42.08156685889562],[-71.77983604501803,42.15525706051354],[-71.57584228174126,42.011964624648904],[-71.17040204462675,42.002301099994305],[-71.0281736073037,41.70360190900702],[-71.09932235865888,41.536772900222346],[-71.08943329532732,41.53279481702011],[-71.168555,41.489404],[-71.188428,41.516406],[-71.204297,41.641113],[-71.14873,41.745703],[-71.17832,41.744043]]]]}},{"type":"Feature","properties":{"id":"new-york","name":"New York","kind":"country","color":"#2690b8","summary":"Lord / claim: Unclaimed.","wiki":"","canon":true,"claim":"Unclaimed","source":"east-coast-canon.png","boundaryStatus":"Approximate trace of supplied reference"},"geometry":{"type":"MultiPolygon","coordinates":[[[[-73.998437,40.452148],[-73.97945978278267,40.414582231968176],[-74.03690426347616,40.40427279781191],[-74.06547027175911,40.43198646248259],[-74.049854,40.429834],[-73.998437,40.452148]]],[[[-72.46956618694888,41.06450559816685],[-72.41086363109804,41.09705409763281],[-72.37957339535444,41.07424868319801],[-72.427393,41.038525],[-72.509766,40.986035],[-72.580859,40.921338],[-72.516602,40.914795],[-72.461328,40.933789],[-72.408984,40.972168],[-72.35341146255934,40.99590177587421],[-72.35891531464037,40.889943219709046],[-72.428076,40.875391],[-72.555566,40.825781],[-72.676074,40.790625],[-72.762842,40.777832],[-73.194287,40.654199],[-73.228516,40.651514],[-73.265527,40.663574],[-73.620898,40.599902],[-73.766748,40.592725],[-73.899561,40.570508],[-73.801318,40.621777],[-73.79917,40.640967],[-73.822656,40.655957],[-73.875195,40.651611],[-73.929004,40.598828],[-74.014893,40.581201],[-74.02390247569917,40.61141360228188],[-73.9521227004105,40.70053058400661],[-73.95582774902175,40.73212278526975],[-73.879248,40.79165],[-73.757227,40.833691],[-73.695215,40.87002],[-73.68286653297241,40.860828698807424],[-73.68351207960333,40.77539171272905],[-73.65739806170697,40.76330537513452],[-73.65662290750477,40.75540315775399],[-73.65280406173297,40.76117913646779],[-73.55359756325174,40.715263443334166],[-72.92960978224382,40.763668389229196],[-72.66966591936661,40.97268709440031],[-72.51545729682886,41.02159242707662],[-72.46956618694888,41.06450559816685]]],[[[-71.31378061900975,44.606681685427795],[-71.5898889164335,44.26234408315112],[-71.73234841951606,43.95563814470249],[-71.91739923446566,43.83100605984574],[-71.86185405127678,43.750464639976535],[-71.92303029571038,43.69504437971411],[-71.98974685033144,43.46204081303927],[-72.1082414032785,43.312876837297225],[-72.11591642868942,43.053340616879],[-72.19991881598158,42.978420247975],[-72.36493844974831,42.95739979955613],[-73.11426948970363,42.67574921256938],[-73.30906925055682,42.662434565871926],[-73.40072092905665,42.59808326595892],[-73.38757122981498,42.520259434377785],[-73.50588912868595,42.39827922427119],[-73.48713688752436,42.28226909677512],[-73.55222500105185,42.241966315993274],[-73.62202766826067,41.89689306145146],[-73.33546371318374,41.84266361615782],[-73.31753541940887,41.78590182307574],[-73.38634235643084,41.74622134991629],[-73.47345557540194,41.63059265793887],[-73.68775183957959,41.515865723868465],[-73.71067488998646,41.36200151396425],[-73.59852356538298,41.28367028127761],[-73.60852698037566,41.20600474191115],[-73.55580112030688,41.16678040092004],[-73.68172924552091,41.01134673655464],[-73.68213888333045,40.95713187715573],[-73.779004,40.878418],[-73.85127,40.831396],[-73.910693,40.816113],[-73.947217,40.776953],[-73.96011512542282,40.768680377993874],[-73.96142083485363,40.77981389861868],[-73.97170444984773,40.78631583574194],[-73.948584,40.83877],[-73.906738,40.912451],[-73.871973,41.055176],[-73.882227,41.170605],[-73.925342,41.218066],[-73.969922,41.249707],[-73.917676,41.135791],[-73.909229,40.996094],[-73.927197,40.914258],[-73.9969287014065,40.802264166918306],[-74.12361170084402,40.88236099059368],[-74.25051953250637,40.88603792818016],[-74.53606086003063,40.974641780172185],[-74.71059960675096,41.09911395329301],[-74.86258267605805,41.10575485520394],[-75.04522777526279,41.19205298438049],[-75.16123413545644,41.21504733041389],[-75.43807054374636,41.36600821619961],[-75.72170094457076,41.419728902376235],[-76.19617423122459,41.79964014215491],[-76.4083823373427,41.84800998590001],[-76.18311472782526,41.92476123651238],[-75.50760432280646,41.9994133391903],[-75.0002509642076,42.21492869734764],[-75.05959843946964,42.376380405711835],[-75.15194909864586,42.34299176795571],[-75.34328298390321,42.34759533901635],[-76.11594424983217,42.09781233777492],[-76.31380328321218,42.07278231930972],[-76.4696023300442,42.09828701950469],[-76.47814928243008,42.16759063603594],[-76.37896434933619,42.196906988723676],[-76.36996903033959,42.464611693816174],[-76.1584961927519,42.55608816685488],[-76.14577051204942,42.62094038410823],[-75.92771977555289,42.74648814284879],[-75.73001040078539,42.80973284935645],[-75.70502599160866,42.906993250655916],[-75.60918666378642,42.9399218093432],[-75.54832538011193,43.13418155765747],[-75.63866721697094,43.28914678633753],[-75.89309922543849,43.45962387379034],[-75.77911923666291,43.61599027003053],[-75.64748492496996,43.67198601934742],[-75.4535005305865,43.68959646145096],[-75.16016028594356,43.78239470921917],[-74.84041441331286,43.81902477638535],[-74.47774431181193,43.7600851992393],[-74.45473747031784,43.71017884003571],[-73.92572575666671,43.51717853976873],[-74.06757816418994,43.39094423117373],[-74.06527431656346,43.243439677937076],[-73.66860490469358,43.25944986921665],[-73.50494820505449,43.41279191966731],[-73.51292839591369,43.56831341312302],[-73.34816874181399,43.690703850047754],[-73.2152320124027,43.71142865105933],[-72.88270028666011,43.6413833583012],[-72.69377713730177,43.79994904308918],[-72.47110368770446,43.905769640326824],[-72.3404310056394,44.15207331782896],[-72.33143860106223,44.377176836260716],[-72.26369373676587,44.43809075746178],[-72.08090505025187,44.98939171156177],[-72.00735391731564,45.056836913902096],[-71.95829354783561,45.35162673142545],[-71.70035143599449,45.549695287664804],[-71.6965467837797,45.55088496378979],[-70.8540380203019,45.79733661789935],[-70.71269598566269,45.75615916523105],[-70.85096495688671,44.94987091157709],[-71.02898372342302,44.73823705796495],[-71.21202218913199,44.70148900624727],[-71.31378061900975,44.606681685427795]]]]}},{"type":"Feature","properties":{"id":"pennsylvania","name":"Pennsylvania","kind":"country","color":"#1f3694","summary":"Lord / claim: Unclaimed.","wiki":"","canon":true,"claim":"Unclaimed","source":"east-coast-canon.png","boundaryStatus":"Approximate trace of supplied reference"},"geometry":{"type":"Polygon","coordinates":[[[-75.99062107709325,41.950347900353364],[-76.19165252341412,41.96080730933106],[-76.4083823373427,41.84800998590001],[-76.18355932988105,41.76259090976947],[-75.7756972847389,41.441763823731826],[-75.72777938291678,41.42459591409831],[-75.72170094457076,41.419728902376235],[-75.7057763631892,41.416712725561595],[-75.27222642056023,41.26138150375018],[-75.29373582965222,41.241311319743986],[-75.30679598354756,41.24390005451178],[-75.38994461601938,41.15153999980008],[-75.35247916781758,41.071580048756026],[-75.63741868041107,40.890859935691765],[-75.50127609935669,40.68371683702688],[-75.546315450252,40.646060887515866],[-75.31486018844004,40.30983592323021],[-75.06100027380816,40.20380842067396],[-74.95240955283082,40.13283046622898],[-74.84114983695316,40.00526146394821],[-75.05000507795812,39.82990284536208],[-75.16134950060382,39.83392917974616],[-75.21886355606316,39.857203737166465],[-75.22707329024128,39.855524770036276],[-75.153809,39.870508],[-75.103809,39.931836],[-75.07417,39.983496],[-75.172949,39.894775],[-75.26530758307736,39.875998519849404],[-75.38540025267271,39.9245971399942],[-75.40545644146057,39.914138089043625],[-75.44543508566458,39.92727431300981],[-75.57092552643793,39.851216916854156],[-75.650980658546,39.69253783631701],[-75.84600941226316,39.70332887706496],[-75.94116038052604,39.74947039356025],[-76.38052856807906,39.77900537440309],[-76.42706892014164,39.74197627525644],[-76.72826284552399,39.76266887933154],[-76.7748342245977,39.72553043847782],[-78.64210703592312,39.86805306209974],[-78.6747586117192,39.82753215990883],[-79.1626958303242,39.83873054570297],[-79.19239127921956,39.79735885032184],[-79.75010318503978,39.79839682969555],[-79.90643422514185,39.71520430421467],[-79.93718335939438,39.71369847290762],[-80.44777400784088,39.72205577138032],[-80.51492825068212,39.843569734072645],[-80.39631515780707,40.05572532834166],[-80.34337307010975,40.35251843519129],[-80.58745670743446,40.720115785756235],[-80.58278355062478,40.84719494251648],[-80.50488591864678,41.085479029942],[-80.46359099260893,41.088536788160916],[-80.45427002502485,41.25791321102962],[-80.116089517507,41.4435727457116],[-80.02395670239581,41.89765449704058],[-79.99068990491436,42.11131847058859],[-79.99566558710602,42.17933533295474],[-79.704053,42.300098],[-79.6832458583085,42.30996126015687],[-79.61826699241797,42.27852624327833],[-79.46200661854168,42.30090334144435],[-79.37892500486,42.26448217776349],[-78.93517567831363,42.23574473469348],[-78.84443777466403,42.26178846779357],[-78.74680228528953,42.22313933357301],[-78.65414344673573,42.24921816350923],[-78.55387717616223,42.21016661416112],[-78.35725127934103,42.19696515504477],[-77.96344532261224,42.26914996951014],[-77.86149958334293,42.23020695725641],[-77.55536399018506,42.21124347582138],[-77.0175041589981,42.04307499086222],[-76.5043602293235,42.013125591815346],[-75.91861438205189,42.12364154680259],[-75.24730571217411,42.34520574095106],[-75.04082087943175,42.3252970338642],[-75.0002509642076,42.21492869734764],[-75.44077926584279,42.027799523772146],[-75.99062107709325,41.950347900353364]]]}},{"type":"Feature","properties":{"id":"new-jersey","name":"New Jersey","kind":"country","color":"#156c99","summary":"Lord / claim: Unclaimed.","wiki":"","canon":true,"claim":"Unclaimed","source":"east-coast-canon.png","boundaryStatus":"Approximate trace of supplied reference"},"geometry":{"type":"MultiPolygon","coordinates":[[[[-74.250488,39.529395],[-74.253174,39.558496],[-74.106738,39.746436],[-74.133203,39.680762],[-74.250488,39.529395]]],[[[-75.26530758307736,39.875998519849404],[-75.320898,39.864697],[-75.35743006196165,39.849529713655635],[-75.49379501957867,39.8680706283106],[-75.38540025267271,39.9245971399942],[-75.26530758307736,39.875998519849404]]],[[[-74.025488,40.756396],[-74.067334,40.719629],[-74.11626,40.687305],[-74.153125,40.673242],[-74.187158,40.647998],[-74.226709,40.608008],[-74.264209,40.528613],[-74.241504,40.45625],[-74.23896025024304,40.45589938328421],[-74.33553257677183,40.39188541997445],[-74.30944253188784,40.311035536097194],[-74.05165560704862,40.244909010038576],[-73.99504437741398,40.19349132487873],[-74.004004,40.171338],[-74.02832,40.072998],[-74.048926,39.923047],[-74.079932,39.788135],[-74.083984,39.829102],[-74.0646,39.993115],[-74.095996,39.975977],[-74.117627,39.938135],[-74.176123,39.726611],[-74.256543,39.613867],[-74.330615,39.535889],[-74.407031,39.548779],[-74.389844,39.486816],[-74.41084,39.454541],[-74.428809,39.387207],[-74.474365,39.342578],[-74.517187,39.346875],[-74.578711,39.316113],[-74.602979,39.292578],[-74.604785,39.24751],[-74.645947,39.207861],[-74.76820469239927,39.03833982617918],[-74.91422712253771,39.072846961429136],[-74.897021,39.145459],[-74.975293,39.188232],[-75.050195,39.21084],[-75.09260248492676,39.209369964653625],[-75.25710274029288,39.338519189359836],[-75.2120167746531,39.375916544116954],[-75.26373444190565,39.53571404065005],[-75.09622953670633,39.64970110771401],[-75.18987358354832,39.733590185136656],[-75.15578618167258,39.77283981585239],[-75.27494319214462,39.8383143542249],[-75.29673798250165,39.841277691397394],[-75.21886355606316,39.857203737166465],[-75.16134950060382,39.83392917974616],[-75.05000507795812,39.82990284536208],[-74.84114983695316,40.00526146394821],[-74.98756235722357,40.17313623322093],[-75.31486018844004,40.30983592323021],[-75.546315450252,40.646060887515866],[-75.50127609935669,40.68371683702688],[-75.63741868041107,40.890859935691765],[-75.35247916781758,41.071580048756026],[-75.38994461601938,41.15153999980008],[-75.30679598354756,41.24390005451178],[-75.04522777526279,41.19205298438049],[-74.86258267605805,41.10575485520394],[-74.71059960675096,41.09911395329301],[-74.53606086003063,40.974641780172185],[-74.25051953250637,40.88603792818016],[-74.12361170084402,40.88236099059368],[-73.9969287014065,40.802264166918306],[-74.025488,40.756396]]],[[[-74.188135,40.522852],[-74.235889,40.518701],[-74.188184,40.6146],[-74.100488,40.658447],[-74.06875,40.649316],[-74.067383,40.61543],[-74.079687,40.586475],[-74.138525,40.541846],[-74.188135,40.522852]]],[[[-74.02390247569917,40.61141360228187],[-74.032031,40.638672],[-74.003369,40.683154],[-73.964551,40.725342],[-73.95582774902175,40.73212278526975],[-73.9521227004105,40.70053058400661],[-74.02390247569917,40.61141360228187]]],[[[-73.97170444984773,40.78631583574194],[-73.96142083485363,40.77981389861868],[-73.96011512542282,40.768680377993874],[-73.987109,40.751367],[-73.97170444984773,40.78631583574194]]]]}},{"type":"Feature","properties":{"id":"delaware","name":"Delaware","kind":"country","color":"#027f85","summary":"Lord / claim: Unclaimed.","wiki":"","canon":true,"claim":"Unclaimed","source":"east-coast-canon.png","boundaryStatus":"Approximate trace of supplied reference"},"geometry":{"type":"MultiPolygon","coordinates":[[[[-75.35533548311871,38.726241348329054],[-75.41179569509205,38.76676785243125],[-75.41666414278869,38.8817698929126],[-75.47670307236513,38.922766067589365],[-75.48387582198,38.999938123399176],[-75.43007521259979,39.03598338010965],[-75.49617290259621,39.376034572689115],[-75.412646,39.281396],[-75.392187,39.092773],[-75.3104,38.966553],[-75.185059,38.819385],[-75.088672,38.777539],[-75.083984,38.722803],[-75.128467,38.632422],[-75.187109,38.591113],[-75.11084,38.599365],[-75.072852,38.578711],[-75.035889,38.50332],[-75.03877,38.426367],[-75.05055842594848,38.385476251144006],[-75.07378239591125,38.39215925745733],[-75.073389,38.41001],[-75.089746,38.425391],[-75.10779380882119,38.41256463709065],[-75.30400852269332,38.53378679088264],[-75.35533548311871,38.726241348329054]]],[[[-75.55141699330963,39.4461543735427],[-75.519824,39.402832],[-75.51585563065348,39.398335714382014],[-75.57121466674637,39.43087452926083],[-75.55141699330963,39.4461543735427]]],[[[-75.37639467248577,39.54018736212949],[-75.41893376716696,39.50239820821555],[-75.33503343939472,39.420036487581044],[-75.31112956306644,39.32064014282841],[-75.353418,39.339844],[-75.524219,39.490186],[-75.519238,39.531885],[-75.523535,39.601855],[-75.471631,39.712402],[-75.421875,39.789697],[-75.353174,39.829736],[-75.3050456954733,39.839578686691056],[-75.27494319214462,39.8383143542249],[-75.15578618167258,39.77283981585239],[-75.20715704368813,39.71401079407689],[-75.31929983982242,39.71826721035822],[-75.43066446501513,39.66229693813804],[-75.37639467248577,39.54018736212949]]],[[[-75.502148,39.717383],[-75.587598,39.640771],[-75.5822761887601,39.59529902044475],[-75.65036569450479,39.63242434015984],[-75.49971450121578,39.7214818568172],[-75.502148,39.717383]]],[[[-75.464404,39.780957],[-75.4863133120505,39.74405411200992],[-75.450192666095,39.84567499121821],[-75.37438370118734,39.842490945874474],[-75.400635,39.831592],[-75.464404,39.780957]]]]}},{"type":"Feature","properties":{"id":"maryland","name":"Maryland","kind":"country","color":"#f88f55","summary":"Lord / claim: KaiserBadger.","wiki":"","canon":true,"claim":"KaiserBadger","source":"east-coast-canon.png","boundaryStatus":"Approximate trace of supplied reference"},"geometry":{"type":"MultiPolygon","coordinates":[[[[-75.0979,38.298096],[-75.13623,38.180518],[-75.203223,38.072412],[-75.2927520977678,37.94544154310055],[-75.32186443983004,37.94643875169416],[-75.225977,38.072314],[-75.137402,38.240088],[-75.0979,38.298096]]],[[[-75.41438597401284,38.50005493883893],[-75.13668207119494,38.3552664634157],[-75.141504,38.298145],[-75.16001,38.255078],[-75.225439,38.242285],[-75.291797,38.129199],[-75.353516,38.065039],[-75.4180659830989,37.949734020946664],[-75.43668071929386,37.95037164655788],[-75.52245133787153,37.89635269000637],[-75.47508237303298,37.85674340191668],[-75.50875501949825,37.800860612186106],[-75.60376771152373,37.880122553491056],[-75.66120171088869,37.84401889042081],[-75.69267281047414,37.88024055582119],[-75.659277,37.953955],[-75.735156,37.97373],[-75.77328568608728,37.97302195354431],[-75.78056788206405,37.98140339777489],[-75.72282922431472,38.017434568540125],[-75.70981629210335,38.169211092811246],[-75.79138058405123,38.191356753578674],[-75.8493413918529,38.15543816476008],[-75.90880814157246,38.15769782782297],[-75.928076,38.169238],[-75.884961,38.213965],[-75.863916,38.26123],[-75.876758,38.31875],[-75.858691,38.362061],[-75.888818,38.355518],[-75.937256,38.309668],[-75.967383,38.291357],[-75.985742,38.331934],[-76.006689,38.322754],[-76.020312,38.294873],[-76.03187906815523,38.28913530906998],[-76.07101658291609,38.317079427915246],[-76.11954802329575,38.31907227288008],[-76.21167,38.361328],[-76.264648,38.436426],[-76.2811463268154,38.46819612789535],[-76.19187299300698,38.47579798958039],[-76.10474174919369,38.52960116961083],[-76.19966004078593,38.618290598565665],[-76.198389,38.618652],[-76.112939,38.601562],[-76.000928,38.601709],[-76.016943,38.625098],[-76.056934,38.62124],[-76.175,38.706689],[-76.212988,38.758301],[-76.27832,38.772461],[-76.28811879574648,38.756140420574525],[-76.31703843363796,38.77381529325739],[-76.300342,38.818213],[-76.246973,38.822656],[-76.168164,38.852734],[-76.191064,38.915576],[-76.24082,38.943066],[-76.26419898161681,38.93409578213019],[-76.2598697747409,39.009222757457835],[-76.24502,39.00918],[-76.185693,38.990723],[-76.135205,39.082129],[-76.132959,39.122949],[-76.216846,39.063623],[-76.22885701813222,39.14518282859572],[-76.15271728071652,39.229211725858825],[-75.86628477997898,39.36874667232538],[-75.92040586480965,39.43074452288453],[-75.99392728141865,39.420111849277305],[-75.954736,39.459619],[-75.913477,39.468359],[-75.872949,39.510889],[-75.97041,39.50459],[-75.958936,39.585059],[-76.006299,39.568701],[-76.062988,39.561133],[-76.085059,39.527002],[-76.080713,39.470312],[-76.097266,39.433105],[-76.141357,39.403223],[-76.21582,39.379932],[-76.223047,39.420312],[-76.247656,39.438623],[-76.256836,39.352148],[-76.276367,39.322754],[-76.330811,39.403906],[-76.347168,39.387549],[-76.345068,39.364502],[-76.358984,39.324658],[-76.405664,39.303906],[-76.402783,39.252832],[-76.420898,39.225],[-76.56588074112777,39.26799290231313],[-76.5816075217978,39.29434253299605],[-76.9913684534619,39.49859266090825],[-77.13580828622044,39.507415282822436],[-77.23221188629883,39.55345256936632],[-77.42190666491065,39.524155404226654],[-77.79215923622554,39.22009436529446],[-78.68415917577137,39.251353549012315],[-78.97412622873901,39.40073134894094],[-78.99799167977625,39.44224349944621],[-79.26348544600779,39.54884511577071],[-79.48909317211,39.55005569032085],[-79.80091683277182,39.22204186944814],[-80.01140717889378,39.22101564712441],[-80.11028487097852,39.099604579998335],[-80.21291912956312,39.09896874861748],[-80.31615172495053,39.15823092588504],[-80.3905200272438,39.31784745975574],[-80.47840412437327,39.39692010203322],[-80.21569233614106,39.70749808364381],[-80.14248154383435,39.66783170758572],[-80.06458324120786,39.71070014093273],[-79.98953664227383,39.6706151850382],[-79.96198678419132,39.712483811926454],[-79.10532540121426,39.754435807043855],[-79.07458540199066,39.79561276512607],[-78.451634722241,39.77835676840235],[-78.41674724557608,39.81839663725115],[-78.08111894537392,39.80367915725632],[-77.98161024002012,39.757709505409856],[-76.59780476168085,39.673356997358304],[-76.27783434894083,39.73173605776357],[-75.91532664187908,39.70764453742547],[-75.69485732376573,39.59501351431317],[-75.52425891600664,38.73337153799986],[-75.46678227706967,38.69270330443581],[-75.52302909499961,38.65691806600411],[-75.41438597401284,38.50005493883893]]],[[[-76.52406102798163,39.19792554270626],[-76.489355,39.158691],[-76.48529886983191,39.1565458812785],[-76.49631627103753,39.15144024389003],[-76.52406102798163,39.19792554270626]]]]}},{"type":"Feature","properties":{"id":"virginia","name":"Virginia","kind":"country","color":"#c3592f","summary":"Lord / claim: Unclaimed.","wiki":"","canon":true,"claim":"Unclaimed","source":"east-coast-canon.png","boundaryStatus":"Approximate trace of supplied reference"},"geometry":{"type":"MultiPolygon","coordinates":[[[[-75.631543,37.535352],[-75.698828,37.516357],[-75.766895,37.472998],[-75.812061,37.425195],[-75.854004,37.296631],[-75.92155122335228,37.17499624375576],[-75.97424654072755,37.22086489082204],[-75.95543769534832,37.37475815188883],[-75.89924493421032,37.4117324937138],[-75.82322790786536,37.60123165017534],[-75.52399023896496,37.76052259876609],[-75.596387,37.631201],[-75.587109,37.558691],[-75.631543,37.535352]]],[[[-75.35002809596361,37.90946720239325],[-75.31886436794233,37.9084090368271],[-75.333057,37.888281],[-75.378516,37.87207],[-75.35002809596361,37.90946720239325]]],[[[-75.43891844638809,37.91248547761109],[-75.445477108401,37.90076980628616],[-75.44154048169968,37.91257450891948],[-75.43891844638809,37.91248547761109]]],[[[-76.925098,38.033008],[-76.84917,37.940234],[-76.81837463689465,37.91028185971273],[-76.84057199295033,37.86225110339585],[-76.75619232858747,37.84036381812742],[-76.58440533041022,37.71181860618046],[-76.549463,37.669141],[-76.484082,37.628857],[-76.46559635811226,37.622915926191354],[-76.43370283083567,37.59905055647766],[-76.38761075805311,37.59785224656491],[-76.305566,37.571484],[-76.367627,37.530273],[-76.268555,37.495166],[-76.254395,37.430615],[-76.263477,37.357031],[-76.400977,37.386133],[-76.405469,37.331934],[-76.393164,37.299951],[-76.453906,37.273535],[-76.538379,37.309375],[-76.757715,37.50542],[-76.755859,37.479199],[-76.738086,37.448779],[-76.610889,37.322559],[-76.497363,37.246875],[-76.401123,37.212695],[-76.326953,37.149268],[-76.300781,37.110889],[-76.283301,37.052686],[-76.338281,37.013135],[-76.400879,36.991309],[-76.462012,37.030762],[-76.506836,37.072314],[-76.602295,37.142871],[-76.630908,37.221729],[-76.703516,37.217676],[-77.006982,37.317676],[-77.250879,37.329199],[-77.227051,37.309082],[-77.196191,37.295703],[-77.001953,37.271045],[-76.925195,37.225],[-76.76543,37.184131],[-76.671875,37.172949],[-76.633936,37.047412],[-76.504639,36.961035],[-76.487842,36.897021],[-76.399561,36.889844],[-76.244238,36.952637],[-76.143994,36.930615],[-75.999414,36.912646],[-75.966357,36.861963],[-75.941553,36.765527],[-75.906905727463,36.69199668133377],[-75.93437924375166,36.671505744788305],[-75.89173394541415,36.59068027255972],[-75.89563102709977,36.572152712986295],[-75.917871,36.632666],[-75.946484,36.659082],[-75.965332,36.637598],[-75.973437,36.599951],[-75.959766,36.571045],[-75.97619304890038,36.52263728835263],[-76.01304195501771,36.57229440021995],[-76.96734187629296,36.575977169604705],[-77.10948150813907,36.49434317410068],[-77.40936831575637,36.65963936801447],[-77.65694153582017,36.661538864276864],[-77.74990952829397,36.580358021432396],[-78.70376536676577,36.59515089824111],[-78.7430222238785,36.69818149440076],[-78.82816295414851,36.76112290618255],[-79.33909387164621,36.772956444591955],[-79.38362297599734,36.73362252824356],[-79.63838759056827,36.740444809697024],[-79.87918660965902,36.66691136232227],[-79.92984850418428,36.668434393443995],[-80.05104866289719,36.79207769514881],[-80.24598702616278,36.757729032092634],[-80.38350952298036,36.6822468180921],[-80.44008036277096,36.72364713027066],[-80.74531719783074,36.75088570024669],[-80.695849770902,36.770552620223334],[-80.69760082992829,36.78042504590345],[-80.67432802303885,36.78969026863598],[-80.84412126618805,37.60650349093319],[-80.85332432307092,37.65839008855319],[-80.85494797217311,37.65858681556083],[-80.8630783226069,37.69769895932492],[-80.66629363065212,37.79394072220926],[-80.47095382570191,37.989132539575444],[-80.28048459294043,38.02706777650243],[-80.2457892838639,38.16521777205095],[-80.09142578357852,38.32266348074729],[-80.1181230414725,38.402137553121534],[-80.02742823152963,38.719870623810486],[-79.95484618499887,38.79957648730577],[-79.9879253279187,38.87955278389519],[-79.95254964957118,38.919596246772734],[-80.02343500298566,39.07993712416826],[-80.0936407454828,39.11978259972379],[-80.04409630781562,39.180451266805484],[-79.85170066362575,39.221794278516455],[-79.80091683277182,39.22204186944814],[-79.78817530388562,39.23544494978159],[-79.66024720540885,39.26293482823366],[-79.59987092500326,39.40599451041184],[-79.43355353273513,39.54975767360346],[-79.32015517171163,39.54914919634847],[-79.09838142923276,39.464394423762236],[-78.74483630531195,39.252800300200484],[-77.72566065134644,39.21710368575932],[-77.35080622762679,39.5200985287973],[-76.90043705212763,39.45326684061021],[-76.8875684105615,39.446852315742596],[-76.65193082648454,39.298604621808906],[-76.51179336240658,39.09346986593575],[-76.44345173814393,39.054799771373936],[-76.473096,39.030615],[-76.54624,39.067969],[-76.558545,39.065234],[-76.518799,39.001172],[-76.49375,38.945215],[-76.519531,38.89834],[-76.515527,38.840625],[-76.521094,38.788281],[-76.536865,38.742627],[-76.501318,38.532178],[-76.458496,38.474951],[-76.416406,38.420215],[-76.394092,38.368994],[-76.43877,38.361523],[-76.509912,38.403662],[-76.572412,38.435791],[-76.646875,38.538525],[-76.65918,38.579541],[-76.677344,38.611963],[-76.668555,38.5375],[-76.641992,38.454346],[-76.408789,38.268262],[-76.365723,38.196875],[-76.33291,38.140771],[-76.341162,38.087012],[-76.401953,38.125049],[-76.454395,38.173535],[-76.593604,38.22832],[-76.769141,38.262939],[-76.868115,38.390283],[-76.867773,38.337158],[-76.889746,38.29209],[-76.950244,38.347021],[-76.988379,38.393896],[-77.001172,38.445264],[-77.076709,38.441748],[-77.155908,38.397119],[-77.23252,38.407715],[-77.241602,38.494824],[-77.220898,38.540967],[-77.134912,38.650098],[-77.053906,38.705811],[-77.018164,38.777734],[-77.030371,38.889258],[-77.045605,38.775781],[-77.091895,38.719531],[-77.164648,38.676562],[-77.2604,38.6],[-77.283789,38.529199],[-77.313672,38.396631],[-77.273242,38.351758],[-77.231934,38.340039],[-77.109912,38.370117],[-77.046777,38.356689],[-76.906348,38.19707],[-76.644873,38.133936],[-76.549512,38.094482],[-76.471777,38.011182],[-76.354932,37.963232],[-76.264258,37.893555],[-76.261816,37.848096],[-76.293213,37.794336],[-76.305615,37.721582],[-76.32183978131735,37.70225258576276],[-76.7009719295703,37.916314863393836],[-76.76981030860574,37.918430564716175],[-76.792773,37.937988],[-76.828613,37.961523],[-76.93999,38.095459],[-77.070654,38.167187],[-77.111084,38.165674],[-76.925098,38.033008]]],[[[-76.32959,38.952783],[-76.32001349031279,38.98495406946567],[-76.28223898397398,38.96357992526135],[-76.27567372315261,38.92969306975962],[-76.330664,38.908594],[-76.32959,38.952783]]],[[[-73.3848029286058,44.917664419199795],[-74.90979151380009,44.50952408254345],[-74.88729192835412,44.54797204966988],[-73.38093376970396,44.940460058282795],[-73.382861,44.936084],[-73.3848029286058,44.917664419199795]]],[[[-73.30340459926174,44.93944946196293],[-73.307959,44.955957],[-73.30868863436807,44.959283834777864],[-73.23144541885621,44.97940988226598],[-73.2477107986316,44.954355072902935],[-73.30340459926174,44.93944946196293]]],[[[-73.11432346922437,45.00772352630491],[-73.09034094636043,44.996472755034524],[-73.17473887979104,44.97388491319892],[-73.162744,44.985449],[-73.11432346922437,45.00772352630491]]]]}},{"type":"Feature","properties":{"id":"north-carolina","name":"North Carolina","kind":"country","color":"#810027","summary":"Lord / claim: Unclaimed.","wiki":"","canon":true,"claim":"Unclaimed","source":"east-coast-canon.png","boundaryStatus":"Approximate trace of supplied reference"},"geometry":{"type":"MultiPolygon","coordinates":[[[[-76.437012,34.756348],[-76.256201,34.914697],[-76.24464539190414,34.92042865545329],[-76.23473055307167,34.914303992156846],[-76.357715,34.803662],[-76.48461482065728,34.663940643063036],[-76.49571335856169,34.66399244573629],[-76.50111073131214,34.66893338317847],[-76.437012,34.756348]]],[[[-79.92341934179171,36.628114793813],[-79.5874840804487,36.739052669894896],[-79.57433450132575,36.738729547145695],[-79.38362297599734,36.73362252824356],[-79.38315961000325,36.73403183356231],[-78.8223166422911,36.72025031858751],[-78.71066783169576,36.61326658882393],[-78.70376536676577,36.59515089824111],[-78.69156473272773,36.59496168466288],[-78.64775851732672,36.552985847343734],[-77.7465872844795,36.53919698404671],[-77.60726798202828,36.66110911791173],[-77.50815683850341,36.66032593689744],[-77.05985897485634,36.453081421737025],[-77.01193073287585,36.45299619454816],[-76.9663718458489,36.535057014564394],[-76.01479537048839,36.53181975389654],[-75.99282727896133,36.470449991022136],[-75.99158607453113,36.47007626710818],[-75.978467,36.42915],[-75.924854,36.383008],[-75.866602,36.267871],[-75.820068,36.112842],[-75.883008,36.175684],[-75.950195,36.208984],[-76.054736,36.234521],[-76.147852,36.279297],[-76.141064,36.215088],[-76.15,36.145752],[-76.221777,36.166895],[-76.270605,36.189893],[-76.24062003827824,36.13862948483942],[-76.34438737455466,36.162221982402755],[-76.36508825430174,36.13492577019671],[-76.383691,36.133545],[-76.424316,36.067969],[-76.478809,36.028174],[-76.559375,36.015332],[-76.678906,36.075293],[-76.717627,36.148096],[-76.733643,36.22915],[-76.740039,36.133301],[-76.71875,36.033496],[-76.726221,35.957617],[-76.611133,35.943652],[-76.503516,35.956055],[-76.358301,35.952881],[-76.263574,35.96709],[-76.206543,35.991211],[-76.069775,35.970312],[-76.060059,35.878662],[-76.075684,35.787549],[-76.083594,35.690527],[-76.045703,35.691162],[-76.001172,35.722168],[-75.97965726343809,35.89008362943469],[-75.96614580392402,35.90250155543873],[-75.853906,35.960156],[-75.812012,35.955762],[-75.772217,35.899902],[-75.758838,35.843262],[-75.744727,35.765479],[-75.773926,35.646973],[-75.965967,35.508398],[-76.103516,35.380273],[-76.173828,35.35415],[-76.275244,35.369043],[-76.390234,35.40127],[-76.40644776807655,35.40313698246164],[-76.49652551424082,35.48343227476482],[-76.50593656725653,35.421842399400504],[-76.515625,35.436475],[-76.532471,35.508447],[-76.577197,35.532324],[-76.611035,35.529687],[-76.634131,35.453223],[-76.741406,35.431494],[-76.887256,35.463086],[-77.03999,35.527393],[-76.974463,35.458398],[-76.595459,35.329687],[-76.552783,35.305615],[-76.512939,35.27041],[-76.565967,35.215186],[-76.60752,35.152979],[-76.613379,35.10415],[-76.628027,35.07334],[-76.77915,34.990332],[-76.861035,35.00498],[-77.070264,35.154639],[-76.974951,35.025195],[-76.898633,34.970264],[-76.744971,34.940967],[-76.456738,34.989355],[-76.362207,34.936523],[-76.439795,34.84292],[-76.516895,34.777246],[-76.618018,34.769922],[-76.70708,34.752148],[-76.72346248847876,34.72382309571522],[-76.75056784762694,34.70620727453283],[-76.79668,34.70415],[-76.895898,34.701465],[-77.049512,34.697363],[-77.133887,34.70791],[-77.251758,34.615625],[-77.29624,34.60293],[-77.358398,34.620264],[-77.384473,34.694385],[-77.412256,34.730811],[-77.412939,34.592139],[-77.402051,34.554785],[-77.379785,34.526611],[-77.517676,34.451367],[-77.649658,34.35752],[-77.696973,34.331982],[-77.750732,34.284961],[-77.86084,34.14917],[-77.888037,34.050146],[-77.927832,33.939746],[-77.932861,33.989453],[-77.926025,34.073145],[-77.953271,34.168994],[-77.970557,33.993408],[-78.01333,33.911816],[-78.0787844199245,33.912776816570506],[-78.5122096618567,34.263705672893245],[-78.67265580096134,34.485002462352114],[-78.80584784658043,34.599359699478974],[-78.9091607902977,34.60702473569205],[-79.12704075884085,34.8312940975302],[-79.23322711611003,34.880559429709194],[-80.48761220241585,35.01836604860876],[-80.61678874845273,35.0868781800283],[-80.66990866409081,35.208761685914375],[-80.79953687910577,35.315463391252024],[-81.05043995160672,35.29127532615723],[-81.10233485181206,35.37235355975957],[-81.20190830617626,35.377743952520625],[-81.45195897874261,35.506777548475014],[-81.79142562670181,35.52082545182705],[-81.8139450905066,35.50309186666405],[-82.3109527049367,35.49803141858363],[-82.3565885366016,35.460613512178845],[-82.67827444290107,35.4277190106101],[-82.7399702048616,35.402011263656995],[-82.81396363810175,35.39070091179953],[-82.85852138545437,35.35261267200625],[-83.26037386288769,35.31436509628108],[-83.30323483608815,35.23707511167605],[-83.71944883057354,35.25072021935945],[-83.72235973966113,35.3663261506015],[-83.59905232984937,35.59821636714176],[-83.49093260148616,35.69710648018773],[-83.11719489125164,35.92018995755889],[-82.9241085358688,36.004308649026285],[-82.83851153725642,36.003948894246044],[-82.57594673940278,36.154789550703796],[-82.38400918159454,36.32467558791493],[-82.31625691973404,36.3430066974568],[-82.30925821968663,36.34921664807194],[-82.2019608526449,36.36039090030863],[-82.25654302211063,36.43805043289554],[-82.35334311138664,36.477713230433906],[-82.35930750217432,36.53058176474717],[-82.29148508563163,36.61893182992708],[-82.13416343977589,36.76277221603979],[-81.66907097801992,36.79398845215879],[-81.6274846985453,36.83184455732019],[-81.60192376867535,36.83135738742802],[-80.94936928840704,36.81667788119127],[-80.83792564398864,36.73510611841861],[-80.54002538660338,36.72658155794674],[-80.48363797733386,36.68528387700041],[-80.38350952298036,36.6822468180921],[-80.19564534443577,36.756274239010956],[-80.0442577046319,36.75190605270336],[-79.92341934179171,36.628114793813]]],[[[-75.46279354893109,35.6079805490625],[-75.456445,35.56416],[-75.464746,35.448633],[-75.509326,35.280322],[-75.544141,35.240088],[-75.66835964880325,35.21485530555958],[-75.67346827010715,35.22774837596216],[-75.536377,35.278613],[-75.487891,35.479492],[-75.48125,35.572119],[-75.48830747978033,35.62211910222638],[-75.46279354893109,35.6079805490625]]],[[[-75.728223,36.103711],[-75.809766,36.271045],[-75.893555,36.566504],[-75.89563102709977,36.572152712986295],[-75.89173394541415,36.59068027255972],[-75.87254917495595,36.59933189251772],[-75.757861,36.229248],[-75.57605368142494,35.909848771280565],[-75.60204822203148,35.905817943318844],[-75.728223,36.103711]]]]}},{"type":"Feature","properties":{"id":"south-carolina","name":"South Carolina","kind":"country","color":"#ac1f4a","summary":"Lord / claim: Unclaimed.","wiki":"","canon":true,"claim":"Unclaimed","source":"east-coast-canon.png","boundaryStatus":"Approximate trace of supplied reference"},"geometry":{"type":"MultiPolygon","coordinates":[[[[-80.66990866409081,35.208761685914375],[-80.61678874845273,35.0868781800283],[-80.48761220241585,35.01836604860876],[-79.23322711611003,34.880559429709194],[-79.12704075884085,34.8312940975302],[-78.9091607902977,34.60702473569205],[-78.80584784658043,34.599359699478974],[-78.5122096618567,34.263705672893245],[-78.0787844199245,33.912776816570506],[-78.405859,33.917578],[-78.577686,33.873242],[-78.841455,33.724072],[-78.920312,33.658691],[-79.03925771100988,33.520685870078715],[-79.2145381692454,33.44269682808654],[-79.16182446525153,33.33714512771115],[-79.19152574660482,33.25075319782391],[-79.19677496787389,33.24868152056703],[-79.238379,33.312158],[-79.227344,33.363184],[-79.226465,33.404883],[-79.281348,33.31543],[-79.24676351428384,33.22895285427665],[-79.39978720448738,33.16855995359514],[-79.5646605771689,33.1889240989965],[-79.65695370012469,33.140972631898926],[-79.66994480417269,33.06316701038833],[-79.87800787800715,32.98964564570858],[-79.98741244200963,33.00328478452432],[-80.03003187861592,32.9086014399755],[-80.18046673988276,32.82662445835995],[-80.29399016938022,32.800030788616674],[-80.61226182039944,32.83629125676518],[-80.7164555012623,32.62367319021856],[-80.84969032355298,32.57497078744274],[-80.91499093694244,32.683514695617056],[-80.98696952355866,32.70984283361394],[-81.01747691392173,32.650930671142916],[-80.97231563723035,32.60630634029186],[-80.98161124307846,32.48246204886717],[-81.10634579144578,32.38578379970969],[-81.28792774728261,32.43677763366625],[-81.43598707155392,32.58658052032626],[-81.42881521993561,32.729230308439924],[-81.41643458383102,32.91687245504907],[-81.47907316244738,32.97965089690996],[-81.56915678671812,32.98248572059069],[-81.67265099652892,33.08592285044959],[-81.66240500836653,33.20577337972438],[-81.77651002890249,33.44705979777504],[-82.03137038029824,33.650641555860325],[-82.10467960844927,33.88780379035704],[-82.17127762259852,33.908811307088456],[-82.34024435804679,34.107437427905396],[-82.6023157808736,34.26685935849438],[-82.92775862964672,34.56064854290073],[-82.92711275137641,34.607362813066146],[-82.92541072259696,34.71612964134711],[-82.92560702077401,34.716267399875065],[-82.92453674486659,34.793676967883606],[-83.14596691183684,34.94836244768336],[-83.28029988503295,35.179415218099436],[-83.26037386288769,35.31436509628108],[-82.85852138545437,35.35261267200625],[-82.81396363810175,35.39070091179953],[-82.3565885366016,35.460613512178845],[-82.3109527049367,35.49803141858363],[-81.83828413050277,35.48392540505117],[-81.79142562670181,35.52082545182705],[-81.45195897874261,35.506777548475014],[-81.20190830617626,35.377743952520625],[-81.10233485181206,35.37235355975957],[-81.05043995160672,35.29127532615723],[-80.79953687910577,35.315463391252024],[-80.66990866409081,35.208761685914375]]],[[[-70.69216732495671,45.86494422469742],[-71.76681783799778,45.52891191848599],[-71.75657059587108,45.5793842151186],[-70.71814868150868,45.88416593407602],[-70.69216732495671,45.86494422469742]]]]}},{"type":"Feature","properties":{"id":"georgia","name":"Georgia","kind":"country","color":"#c13100","summary":"Lord / claim: Stifo.","wiki":"","canon":true,"claim":"Stifo","source":"east-coast-canon.png","boundaryStatus":"Approximate trace of supplied reference"},"geometry":{"type":"Polygon","coordinates":[[[-83.32441654896407,35.17908035009176],[-83.14596552926191,34.8709110354381],[-82.92541072259696,34.71612964134711],[-82.92845341028284,34.52168904607667],[-82.64687497354473,34.2671783774376],[-82.6023157808736,34.26685935849438],[-82.23529297546978,33.96877004833344],[-82.24007523380143,33.89047220075008],[-82.11015343025042,33.80955997030591],[-82.0790335815987,33.61209209319593],[-81.92959081414058,33.510295104782486],[-81.74545033222071,33.2877210817128],[-81.71708262889669,33.08690748827019],[-81.63739755381036,32.96389998339475],[-81.42344325602018,32.83607991368495],[-81.4401301497711,32.50417373595973],[-81.17635658162895,32.3682362296618],[-81.34299491946645,32.151315189342796],[-81.32631521970032,32.01130566514852],[-81.42599729658124,31.8659772921609],[-81.36621660578956,31.76795356345823],[-81.39715722452993,31.718001507630536],[-81.36471473810138,31.56729772151163],[-81.49459255792763,31.41401910422879],[-81.43013003369225,31.311979129863847],[-81.46658835339359,31.10677400101921],[-81.65634016895288,30.8821800575637],[-81.81687691924448,31.037521571769634],[-81.95024411790354,31.041832304594376],[-82.00566330132047,30.970062880882026],[-81.94565459724954,30.86958691059959],[-81.97820513561707,30.773611373169402],[-81.92617369481295,30.72240201675987],[-81.98736638147356,30.653100515156677],[-82.4472694063536,30.89078178103673],[-82.49332045699201,31.274771922236784],[-82.67305513414277,31.490762395161298],[-82.76484955988388,31.538130583350256],[-83.1518168045662,31.53753271748038],[-83.19879555644872,31.583388971222856],[-83.28432757903789,31.58268021448564],[-83.40363438500819,31.741210557372614],[-83.45971759432825,31.921448930057277],[-83.5531561421374,32.05393498421101],[-83.66183771670858,32.11770955942171],[-83.86973136917034,32.11091495227086],[-83.94765219026955,32.01944366786565],[-83.9697224170983,32.04088027435196],[-83.943214986912,32.3067327643136],[-84.03268169367502,32.43427999975428],[-84.0901172973099,32.7772383038522],[-83.82251854693406,33.379020253827186],[-83.827666156653,33.625847853837236],[-83.91358969208618,33.785508789915696],[-83.91652559840749,33.98750847486359],[-83.98068693655145,34.08552243101659],[-84.4391338544951,34.065796016308866],[-84.56129990643181,33.97899126441319],[-84.64388290116348,33.97466886444355],[-84.68741107456368,34.05316068395579],[-84.79113405163407,34.06767919741748],[-84.75451690341635,34.23054372164529],[-84.63559650581331,34.43628612173824],[-84.32889276235353,34.74628308536978],[-84.20217716729117,34.75110416450393],[-84.16062408228886,34.79178240892579],[-83.94854820073591,34.837681606287816],[-83.84303746341322,34.937984996319024],[-83.844383775993,35.015692368549225],[-83.75884246596323,35.05648839984308],[-83.6972995204951,35.231846442915874],[-83.60950203122992,35.19480364849136],[-83.32441654896407,35.17908035009176]],[[-82.589258,34.017383],[-82.577197,33.956396],[-82.55332,33.937305],[-82.579102,33.86543],[-82.555078,33.879443],[-82.520654,33.893213],[-82.490723,33.8979],[-82.419238,33.845703],[-82.308057,33.775879],[-82.275244,33.725439],[-82.43916,33.671191],[-82.541309,33.662354],[-82.574707,33.642676],[-82.467627,33.640723],[-82.33208,33.672168],[-82.20835,33.663574],[-82.187646,33.693799],[-82.247314,33.773926],[-82.327148,33.847021],[-82.381006,33.926855],[-82.410645,33.954102],[-82.441211,33.938379],[-82.484717,33.966016],[-82.545996,34.008545],[-82.589258,34.017383]]]}},{"type":"Feature","properties":{"id":"smokey-march","name":"Smokey March","kind":"country","color":"#ee7145","summary":"Lord / claim: DanteTHYPRODICAL SON.","wiki":"","canon":true,"claim":"DanteTHYPRODICAL SON","source":"east-coast-canon.png","boundaryStatus":"Approximate trace of supplied reference"},"geometry":{"type":"MultiPolygon","coordinates":[[[[-81.5457732056862,28.066492359023446],[-81.44976783763131,28.15708458609772],[-81.23029776289037,28.057676735666092],[-81.59376434601988,28.021116586612077],[-81.92884915710825,27.752208954006253],[-82.00265763449782,27.786097065513342],[-81.73989949816578,28.03718445042469],[-81.5457732056862,28.066492359023446]]],[[[-83.7658094978239,35.365469894146436],[-83.75884246596323,35.05648839984308],[-83.82320902416858,35.035617035068846],[-84.02064812855308,35.20486642198644],[-84.02278289810972,35.282138460697496],[-83.98204398074705,35.36042940295299],[-83.7494591236544,35.538838529069594],[-83.68343933537527,35.52084970829598],[-83.7658094978239,35.365469894146436]]],[[[-81.85861832339069,36.797321007701285],[-82.18063821607187,36.763328456438174],[-82.39947449756282,36.47825752091221],[-82.25246897214883,36.399605780380966],[-82.31625691973404,36.3430066974568],[-82.45119408152749,36.306497984298296],[-82.66450135563143,36.11740735169644],[-83.36511693410753,35.81218192255501],[-83.66225666922996,35.540407451405805],[-83.66957833839892,35.73190835950263],[-83.80045205385048,35.72950321336918],[-83.84564923559621,35.76683147145995],[-84.28108695911027,35.83164395152872],[-84.41569638770754,35.9417053310705],[-84.50105714559386,35.938614824953305],[-84.66025392753457,36.10393593865517],[-84.66778599524638,36.21767486985945],[-84.3698654608454,36.51287837008081],[-84.2445992814876,36.554773972945455],[-83.88763104318967,36.86667670434127],[-83.75798947398265,36.869730719193235],[-83.71920221168999,36.90830582211028],[-83.41477485670445,36.91388553879211],[-83.37591952135945,36.95227544497963],[-83.06788190212357,36.955762037347995],[-83.03416500862035,37.0318943029221],[-82.5464314712655,37.33870638409179],[-82.12797666808864,37.530492173090536],[-81.9434193051351,37.53024713306456],[-81.63833362388283,37.41282898037731],[-81.35272574974229,37.41003586810836],[-81.02922515710222,37.67970284921885],[-80.85332432307092,37.65839008855319],[-80.695849770902,36.770552620223334],[-80.78848972852019,36.73372146189887],[-80.90682930710479,36.854864914087386],[-81.44206203932816,36.86710959167575],[-81.48385310816731,36.829107059633195],[-81.72252994479454,36.833656040024536],[-81.76406787497899,36.79572271521379],[-81.81722353778589,36.83525030297202],[-81.85861832339069,36.797321007701285]]]]}},{"type":"Feature","properties":{"id":"florida","name":"Florida","kind":"country","color":"#f8502b","summary":"Lord / claim: KaiserBismark.","wiki":"","canon":true,"claim":"KaiserBismark","source":"east-coast-canon.png","boundaryStatus":"Approximate trace of supplied reference"},"geometry":{"type":"MultiPolygon","coordinates":[[[[-82.55303731865389,27.635245408641705],[-82.52085,27.678271],[-82.48730397805052,27.712760285640655],[-82.47890842747458,27.680023830266034],[-82.55303731865389,27.635245408641705]]],[[[-82.610986,27.777246],[-82.626025,27.745996],[-82.65166411348716,27.725707683602465],[-82.71752085299521,27.853263427331107],[-82.67294803354542,27.901479154596856],[-82.67274079736767,27.959857121649605],[-82.633789,27.897754],[-82.596582,27.873242],[-82.610986,27.777246]]],[[[-80.533154,28.070068],[-80.53120712797326,28.065744238427456],[-80.5503778844571,28.04632866971896],[-80.61001,28.177588],[-80.622852,28.320361],[-80.606934,28.5229],[-80.632861,28.518018],[-80.653906,28.452197],[-80.665479,28.374902],[-80.693506,28.344971],[-80.731738,28.462891],[-80.729053,28.516211],[-80.70041187885424,28.560189831156013],[-80.57184792813082,28.548844397314376],[-80.56831117893886,28.424198262963603],[-80.581152,28.364697],[-80.584961,28.271582],[-80.572852,28.180859],[-80.533154,28.070068]]],[[[-82.32554575512954,30.814082973486258],[-82.29634488582732,30.81278287876732],[-82.11790201948159,30.720562292978858],[-82.0337142078272,30.65561317248798],[-82.01487168909168,30.667315460437365],[-81.98736638147356,30.653100515156677],[-81.92617369481295,30.72240201675987],[-81.959917023764,30.82753402550353],[-81.94565459724954,30.86958691059959],[-82.00566330132047,30.970062880882026],[-81.95024411790354,31.041832304594376],[-81.86120202881882,31.038914298629738],[-81.65634016895288,30.8821800575637],[-81.61202776465,30.880629249259798],[-81.57546001541346,30.977911382068637],[-81.53666179825616,31.023833707316044],[-81.48633633946733,31.004543461997084],[-81.48008871118293,30.98064329102297],[-81.500586,30.91377],[-81.52041,30.874658],[-81.516211,30.801807],[-81.503955,30.731445],[-81.457178,30.640771],[-81.385742,30.269971],[-81.337109,30.141211],[-81.249512,29.793799],[-81.104541,29.456982],[-80.9,29.049854],[-80.68464328947587,28.733286506302427],[-80.70637265968689,28.603903396434767],[-80.765918,28.632812],[-80.779883,28.682959],[-80.770996,28.732471],[-80.808691,28.758936],[-80.838184,28.757666],[-80.818408,28.635596],[-80.787207,28.560645],[-80.748633,28.381006],[-80.686377,28.272168],[-80.650098,28.180908],[-80.57892332756573,28.017418698823604],[-80.62576902874507,27.96997477397321],[-80.72033077056628,27.928012238204143],[-80.91352473052522,27.947728465787016],[-80.96331860910279,28.004048185932984],[-81.44976783763131,28.15708458609772],[-81.5457732056862,28.066492359023446],[-81.73989949816578,28.03718445042469],[-82.00265763449782,27.786097065513342],[-82.00231665019427,27.78594050742531],[-82.0262713173001,27.763005783188028],[-82.21680733722746,27.68031035244386],[-82.46309583477948,27.96052158545141],[-82.53120601657317,27.89236063891215],[-82.57959,27.958447],[-82.635937,27.981201],[-82.6727230106809,27.96486759146725],[-82.67153588497301,28.299278244141885],[-82.57284555388091,28.535713320305202],[-82.55489451293354,29.06008688213489],[-82.70847666618369,29.32845668003638],[-82.80057100135883,29.33329476833232],[-83.15967503769416,29.582458525445492],[-83.35947491157634,29.937881690158804],[-83.65064935270334,30.24421489327364],[-83.95742964245869,30.33678756803211],[-84.06408138786355,30.266511245903978],[-84.08407051082384,30.150633907106457],[-84.29725252466466,30.10087115201087],[-84.50719852366296,29.909971677273614],[-84.63302293967203,29.905978889035957],[-84.6745067963708,29.857979240939624],[-84.75785106482533,29.85486020903947],[-84.79974817251787,29.89974163128967],[-84.84091677478301,29.851492184290617],[-85.21822691080561,30.387609681229495],[-85.3808971399653,30.332239042998136],[-85.5457757290021,30.4591562482454],[-85.66728997409982,30.450909970895125],[-85.68873354539929,30.517874256829767],[-85.65003624144273,30.611657892665498],[-85.75246070887694,30.672542475480935],[-85.83219595092031,30.621281172776946],[-85.99315520565916,30.608975848970776],[-86.11180715092284,30.508550579007668],[-86.35204327471209,30.488391051226063],[-86.39381402567462,30.57566599146542],[-86.5136702845495,30.565023872748913],[-86.5423706665907,30.457358066979],[-86.59031843930681,30.432775161660892],[-86.71141015899836,30.45597699745891],[-86.76030397995234,30.394332956823945],[-86.967627,30.372363],[-87.08755053375303,30.355363841016104],[-87.06502544343459,30.41123298873706],[-86.985791,30.430859],[-86.965137,30.501904],[-86.997559,30.570312],[-87.033887,30.553906],[-87.07173601973733,30.5008385657341],[-87.15799562543565,30.729517136329644],[-87.2562760639688,30.65186477685819],[-87.25186000305892,30.471178760777562],[-87.31046817154689,30.39704146639283],[-87.43078778923949,30.384634569601793],[-87.49260539850653,30.446352660529364],[-87.50400166284685,30.851480104125944],[-87.54578504381972,30.891978272216345],[-87.5938130534239,31.110413490716997],[-87.67789850059046,31.190526562033483],[-87.52295875339846,31.384112765069492],[-87.42996443230507,31.592101708569654],[-86.87437257651548,31.822870359103042],[-86.6286529505729,31.714748112733083],[-85.94152630521168,31.642100703694403],[-85.60989942082554,31.40148172510807],[-84.87578424657936,31.44635846785295],[-84.75911932140845,31.63046046423395],[-84.59592776465217,31.682675709438204],[-84.31654664425909,31.91677542166371],[-84.23363551805004,31.920113510582382],[-84.1944513362291,31.96600225986911],[-84.15059499257985,31.923294596207526],[-84.0258011508648,31.92777648039272],[-83.82825206447691,32.112270624158604],[-83.66183771670858,32.11770955942171],[-83.56778861059473,32.06252134729816],[-83.43218946085564,31.832979920521222],[-83.40363438500819,31.741210557372614],[-83.28432757903789,31.58268021448564],[-83.18236132912848,31.567347419077265],[-83.1518168045662,31.53753271748038],[-82.98579324267607,31.537789224517123],[-82.67305513414277,31.490762395161298],[-82.54524281661136,31.337167978397577],[-82.53731150400387,31.275543471998308],[-82.48763132004686,31.227333862331797],[-82.4472694063536,30.89078178103673],[-82.32554575512954,30.814082973486258]],[[-81.663135,29.31416],[-81.639551,29.257764],[-81.595459,29.197949],[-81.529199,29.224072],[-81.540283,29.287354],[-81.640039,29.414453],[-81.682861,29.505225],[-81.683887,29.367676],[-81.663135,29.31416]]],[[[-81.482715,30.814062],[-81.484619,30.897852],[-81.46571559021834,30.925659218211962],[-81.44312720215372,30.839247813403777],[-81.463477,30.727783],[-81.482715,30.814062]]]]}}]}