{"type":"FeatureCollection","features":[{"type":"Feature","properties":{"name":"Rocky Mountain / Sierra Madre divide","status":"inferred guide"},"geometry":{"type":"LineString","coordinates":[[-179.0,70.0],[-151.0,65.0],[-139.0,61.0],[-130.0,57.0],[-121.0,53.0],[-116.0,49.0],[-113.0,46.0],[-110.0,43.0],[-107.0,40.0],[-106.0,36.0],[-108.0,32.0],[-107.0,28.0],[-104.0,24.0],[-101.0,21.0],[-97.0,17.0],[-92.0,12.0],[-89.0,5.0]]}},{"type":"Feature","properties":{"name":"Coast Mountains / Cascades / Sierra Nevada","status":"inferred guide"},"geometry":{"type":"LineString","coordinates":[[-179.0,57.0],[-150.0,60.0],[-137.0,58.0],[-129.0,54.0],[-124.0,49.0],[-121.7,46.0],[-121.3,42.0],[-119.5,38.0],[-118.4,36.0],[-116.7,34.0],[-115.7,30.0],[-111.4,26.0],[-110.0,20.0],[-108.0,5.0]]}},{"type":"Feature","properties":{"name":"Appalachian divide","status":"inferred guide"},"geometry":{"type":"LineString","coordinates":[[-55.0,75.0],[-66.0,54.0],[-70.0,48.0],[-73.0,45.0],[-75.0,42.0],[-78.0,40.0],[-81.0,37.0],[-84.0,35.0],[-86.0,33.0],[-87.0,25.0],[-87.0,5.0]]}},{"type":"Feature","properties":{"name":"Northern drainage divide","status":"inferred guide"},"geometry":{"type":"LineString","coordinates":[[-179.0,72.0],[-145.0,68.0],[-132.0,64.0],[-120.0,60.0],[-108.0,59.0],[-100.0,57.0],[-91.0,51.0],[-80.0,48.0],[-65.0,52.0],[-40.0,56.0]]}},{"type":"Feature","properties":{"name":"Mexican volcanic belt","status":"inferred guide"},"geometry":{"type":"LineString","coordinates":[[-130.0,19.0],[-109.0,20.0],[-105.0,21.0],[-101.0,19.5],[-97.0,19.0],[-93.0,17.0],[-88.0,18.0],[-75.0,20.0],[-40.0,22.0]]}},{"type":"Feature","properties":{"name":"Central American highlands","status":"inferred guide"},"geometry":{"type":"LineString","coordinates":[[-130.0,12.0],[-96.0,13.0],[-91.0,15.0],[-87.0,14.0],[-85.0,12.0],[-82.0,10.0],[-79.0,9.0],[-70.0,8.0],[-40.0,8.0]]}}]}